{"32350": {"division": "Addalaichenai", "district": "APR", "postalCode": 32350}, "32400": {"division": "Akkaraipattu", "district": "APR", "postalCode": 32400}, "32000": {"division": "Ampara", "district": "APR", "postalCode": 32000}, "32024": {"division": "Bakmitiyawa", "district": "APR", "postalCode": 32024}, "32050": {"division": "Central Camp", "district": "APR", "postalCode": 32050}, "32046": {"division": "Dadayamtalawa", "district": "APR", "postalCode": 32046}, "32014": {"division": "Damana", "district": "APR", "postalCode": 32014}, "32126": {"division": "Damanewela", "district": "APR", "postalCode": 32126}, "32006": {"division": "Deegawapiya", "district": "APR", "postalCode": 32006}, "32150": {"division": "Dehiattakandiya", "district": "APR", "postalCode": 32150}, "32038": {"division": "Devalahinda", "district": "APR", "postalCode": 32038}, "32008": {"division": "Digamadulla", "district": "APR", "postalCode": 32008}, "32104": {"division": "Dorakumbura", "district": "APR", "postalCode": 32104}, "32066": {"division": "Galapitagala", "district": "APR", "postalCode": 32066}, "32064": {"division": "Gonagolla", "district": "APR", "postalCode": 32064}, "32010": {"division": "Hingurana", "district": "APR", "postalCode": 32010}, "32514": {"division": "Hulannuge", "district": "APR", "postalCode": 32514}, "50112": {"division": "Andiyagala", "district": "AD", "postalCode": 50112}, "50248": {"division": "Angamuwa", "district": "AD", "postalCode": 50248}, "50000": {"division": "Anuradhapura", "district": "AD", "postalCode": 50000}, "50169": {"division": "Awukana", "district": "AD", "postalCode": 50169}, "50566": {"division": "Bogahawewa", "district": "AD", "postalCode": 50566}, "50356": {"division": "Dematawewa", "district": "AD", "postalCode": 50356}, "50214": {"division": "Dunumadalawa", "district": "AD", "postalCode": 50214}, "50393": {"division": "Dutuwewa", "district": "AD", "postalCode": 50393}, "50014": {"division": "Elayapattuwa", "district": "AD", "postalCode": 50014}, "50260": {"division": "Eppawala", "district": "AD", "postalCode": 50260}, "50584": {"division": "Etawatunuwewa", "district": "AD", "postalCode": 50584}, "50518": {"division": "Etaweeragollewa", "district": "AD", "postalCode": 50518}, "50210": {"division": "Galadivulwewa", "district": "AD", "postalCode": 50210}, "50390": {"division": "Galenbindunuwewa", "district": "AD", "postalCode": 50390}, "50006": {"division": "Galkadawala", "district": "AD", "postalCode": 50006}, "50120": {"division": "Galkiriyagama", "district": "AD", "postalCode": 50120}, "50064": {"division": "Galkulama", "district": "AD", "postalCode": 50064}, "50170": {"division": "Galnewa", "district": "AD", "postalCode": 50170}, "50057": {"division": "Gambirigaswewa", "district": "AD", "postalCode": 50057}, "50142": {"division": "Ganewalpola", "district": "AD", "postalCode": 50142}, "50224": {"division": "Gemunupura", "district": "AD", "postalCode": 50224}, "50392": {"division": "Getalawa", "district": "AD", "postalCode": 50392}, "50036": {"division": "Gnanikulama", "district": "AD", "postalCode": 50036}, "50554": {"division": "Gonahaddenawa", "district": "AD", "postalCode": 50554}, "50150": {"division": "Habarana", "district": "AD", "postalCode": 50150}, "50124": {"division": "Halmillawa", "district": "AD", "postalCode": 50124}, "50552": {"division": "Halmillawetiya", "district": "AD", "postalCode": 50552}, "50044": {"division": "Hidogama", "district": "AD", "postalCode": 50044}, "50350": {"division": "Horawpatana", "district": "AD", "postalCode": 50350}, "50222": {"division": "Horiwila", "district": "AD", "postalCode": 50222}, "50176": {"division": "Hurigaswewa", "district": "AD", "postalCode": 50176}, "50394": {"division": "Hurulunikawewa", "district": "AD", "postalCode": 50394}, "50282": {"division": "Kagama", "district": "AD", "postalCode": 50282}, "50320": {"division": "Kahatagasdigiliya", "district": "AD", "postalCode": 50320}, "50562": {"division": "Kahatagollewa", "district": "AD", "postalCode": 50562}, "50288": {"division": "Kalakarambewa", "district": "AD", "postalCode": 50288}, "50174": {"division": "Kalankuttiya", "district": "AD", "postalCode": 50174}, "50226": {"division": "Kalaoya", "district": "AD", "postalCode": 50226}, "50556": {"division": "Kalawedi Ulpotha", "district": "AD", "postalCode": 50556}, "50454": {"division": "Kallanchiya", "district": "AD", "postalCode": 50454}, "90166": {"division": "Akkarasiy", "district": "BD", "postalCode": 90166}, "90736": {"division": "Aluketiyaw", "district": "BD", "postalCode": 90736}, "90722": {"division": "Aluttaramma", "district": "BD", "postalCode": 90722}, "90108": {"division": "Ambadandegama", "district": "BD", "postalCode": 90108}, "90326": {"division": "Ambagahawatta", "district": "BD", "postalCode": 90326}, "90300": {"division": "Ambagasdowa", "district": "BD", "postalCode": 90300}, "90204": {"division": "Amunumulla", "district": "BD", "postalCode": 90204}, "90017": {"division": "Arawa", "district": "BD", "postalCode": 90017}, "90532": {"division": "Arawakumbura", "district": "BD", "postalCode": 90532}, "90712": {"division": "Arawatta", "district": "BD", "postalCode": 90712}, "90542": {"division": "Atakiriya", "district": "BD", "postalCode": 90542}, "90000": {"division": "Badulla", "district": "BD", "postalCode": 90000}, "90019": {"division": "Baduluoya", "district": "BD", "postalCode": 90019}, "90092": {"division": "Ballaketuwa", "district": "BD", "postalCode": 90092}, "90322": {"division": "Bambarapana", "district": "BD", "postalCode": 90322}, "90100": {"division": "Bandarawela", "district": "BD", "postalCode": 90100}, "90066": {"division": "Beramada", "district": "BD", "postalCode": 90066}, "90502": {"division": "Bibilegama", "district": "BD", "postalCode": 90502}, "90354": {"division": "Bogahakumbura", "district": "BD", "postalCode": 90354}, "90362": {"division": "Boragas", "district": "BD", "postalCode": 90362}, "90170": {"division": "Boralanda", "district": "BD", "postalCode": 90170}, "90302": {"division": "Bowela", "district": "BD", "postalCode": 90302}, "90714": {"division": "Dambana", "district": "BD", "postalCode": 90714}, "90080": {"division": "Demodara", "district": "BD", "postalCode": 90080}, "90132": {"division": "Diganatenna", "district": "BD", "postalCode": 90132}, "90214": {"division": "Dikkapitiya", "district": "BD", "postalCode": 90214}, "90324": {"division": "Dimbulana", "district": "BD", "postalCode": 90324}, "90726": {"division": "Divulapelessa", "district": "BD", "postalCode": 90726}, "90150": {"division": "Diyatalawa", "district": "BD", "postalCode": 90150}, "90104": {"division": "Dulgolla", "district": "BD", "postalCode": 90104}, "90013": {"division": "Egodawela", "district": "BD", "postalCode": 90013}, "90090": {"division": "Ella", "district": "BD", "postalCode": 90090}, "90140": {"division": "Ettampitiya", "district": "BD", "postalCode": 90140}, "90065": {"division": "Galauda", "district": "BD", "postalCode": 90065}, "90206": {"division": "Galedanda", "district": "BD", "postalCode": 90206}, "90752": {"division": "Galporuyaya", "district": "BD", "postalCode": 90752}, "90512": {"division": "Gamewela", "district": "BD", "postalCode": 90512}, "90082": {"division": "Gawarawela", "district": "BD", "postalCode": 90082}, "90750": {"division": "Girandurukotte", "district": "BD", "postalCode": 90750}, "90067": {"division": "Godunna", "district": "BD", "postalCode": 90067}, "90208": {"division": "Gurutalawa", "district": "BD", "postalCode": 90208}, "90180": {"division": "Haldummulla", "district": "BD", "postalCode": 90180}, "10732": {"division": "Akarawita", "district": "CO", "postalCode": 10732}, "10150": {"division": "Angamuwa", "district": "CO", "postalCode": 10150}, "10700": {"division": "Avissawella", "district": "CO", "postalCode": 10700}, "10513": {"division": "Batawala", "district": "CO", "postalCode": 10513}, "10120": {"division": "Battaramulla", "district": "CO", "postalCode": 10120}, "10526": {"division": "Batugampola", "district": "CO", "postalCode": 10526}, "10522": {"division": "Bope", "district": "CO", "postalCode": 10522}, "10290": {"division": "Boralesgamuwa", "district": "CO", "postalCode": 10290}, "800": {"division": "Borella", "district": "CO", "postalCode": 800}, "10656": {"division": "Dedigamuwa", "district": "CO", "postalCode": 10656}, "10350": {"division": "Dehiwala", "district": "CO", "postalCode": 10350}, "10302": {"division": "Deltara", "district": "CO", "postalCode": 10302}, "10204": {"division": "Habarakada", "district": "CO", "postalCode": 10204}, "10524": {"division": "Handapangoda", "district": "CO", "postalCode": 10524}, "80212": {"division": "Agaliya", "district": "GL", "postalCode": 80212}, "80650": {"division": "Ahangama", "district": "GL", "postalCode": 80650}, "80562": {"division": "Ahungalla", "district": "GL", "postalCode": 80562}, "80090": {"division": "Akmeemana", "district": "GL", "postalCode": 80090}, "80332": {"division": "Aluthwala", "district": "GL", "postalCode": 80332}, "80300": {"division": "Ambalangoda", "district": "GL", "postalCode": 80300}, "80204": {"division": "Ampegama", "district": "GL", "postalCode": 80204}, "80422": {"division": "Amugoda", "district": "GL", "postalCode": 80422}, "80044": {"division": "Anangoda", "district": "GL", "postalCode": 80044}, "80122": {"division": "Angulugaha", "district": "GL", "postalCode": 80122}, "80048": {"division": "Ankokkawala", "district": "GL", "postalCode": 80048}, "80200": {"division": "Baddegama", "district": "GL", "postalCode": 80200}, "80550": {"division": "Balapitiya", "district": "GL", "postalCode": 80550}, "80143": {"division": "Banagala", "district": "GL", "postalCode": 80143}, "80320": {"division": "Batapola", "district": "GL", "postalCode": 80320}, "80500": {"division": "Bentota", "district": "GL", "postalCode": 80500}, "80270": {"division": "Boossa", "district": "GL", "postalCode": 80270}, "80654": {"division": "Dikkumbura", "district": "GL", "postalCode": 80654}, "80250": {"division": "Dodanduwa", "district": "GL", "postalCode": 80250}, "80402": {"division": "Ella Tanabaddegama", "district": "GL", "postalCode": 80402}, "80400": {"division": "Elpitiya", "district": "GL", "postalCode": 80400}, "80458": {"division": "Ethkandura", "district": "GL", "postalCode": 80458}, "80000": {"division": "Galle", "district": "GL", "postalCode": 80000}, "80440": {"division": "Ganegoda", "district": "GL", "postalCode": 80440}, "80220": {"division": "Ginimellagaha", "district": "GL", "postalCode": 80220}, "80280": {"division": "Gintota", "district": "GL", "postalCode": 80280}, "80302": {"division": "Godahena", "district": "GL", "postalCode": 80302}, "80502": {"division": "Gonagalpura", "district": "GL", "postalCode": 80502}, "11536": {"division": "Akaragama", "district": "GQ", "postalCode": 11536}, "11122": {"division": "Alawala", "district": "GQ", "postalCode": 11122}, "11052": {"division": "Ambagaspitiya", "district": "GQ", "postalCode": 11052}, "11212": {"division": "Ambepussa", "district": "GQ", "postalCode": 11212}, "11558": {"division": "Andiambalama", "district": "GQ", "postalCode": 11558}, "11120": {"division": "Attanagalla", "district": "GQ", "postalCode": 11120}, "11538": {"division": "Badalgama", "district": "GQ", "postalCode": 11538}, "11244": {"division": "Banduragoda", "district": "GQ", "postalCode": 11244}, "11011": {"division": "Batuwatta", "district": "GQ", "postalCode": 11011}, "11040": {"division": "Bemmulla", "district": "GQ", "postalCode": 11040}, "11650": {"division": "Biyagama", "district": "GQ", "postalCode": 11650}, "11672": {"division": "Biyagama IPZ", "district": "GQ", "postalCode": 11672}, "11216": {"division": "Bokalagama", "district": "GQ", "postalCode": 11216}, "11024": {"division": "Bollete", "district": "GQ", "postalCode": 11024}, "11134": {"division": "Bopagama", "district": "GQ", "postalCode": 11134}, "11720": {"division": "Buthpitiya", "district": "GQ", "postalCode": 11720}, "11524": {"division": "Dagonna", "district": "GQ", "postalCode": 11524}, "11896": {"division": "Danowita", "district": "GQ", "postalCode": 11896}, "11889": {"division": "Debahera", "district": "GQ", "postalCode": 11889}, "11690": {"division": "Dekatana", "district": "GQ", "postalCode": 11690}, "11700": {"division": "Delgoda", "district": "GQ", "postalCode": 11700}, "11228": {"division": "Delwagura", "district": "GQ", "postalCode": 11228}, "11692": {"division": "Demalagama", "district": "GQ", "postalCode": 11692}, "11270": {"division": "Demanhandiya", "district": "GQ", "postalCode": 11270}, "11102": {"division": "Dewalapola", "district": "GQ", "postalCode": 11102}, "11250": {"division": "Divulapitiya", "district": "GQ", "postalCode": 11250}, "11208": {"division": "Divuldeniya", "district": "GQ", "postalCode": 11208}, "11680": {"division": "Dompe", "district": "GQ", "postalCode": 11680}, "11264": {"division": "Dunagaha", "district": "GQ", "postalCode": 11264}, "11380": {"division": "Ekala", "district": "GQ", "postalCode": 11380}, "11116": {"division": "Ellakkala", "district": "GQ", "postalCode": 11116}, "11108": {"division": "Essella", "district": "GQ", "postalCode": 11108}, "11000": {"division": "Gampaha", "district": "GQ", "postalCode": 11000}, "82100": {"division": "Ambalantota", "district": "HB", "postalCode": 82100}, "82220": {"division": "Angunakolapelessa", "district": "HB", "postalCode": 82220}, "82005": {"division": "Bandagiriya Colony", "district": "HB", "postalCode": 82005}, "82110": {"division": "Barawakumbuka", "district": "HB", "postalCode": 82110}, "82400": {"division": "Beliatta", "district": "HB", "postalCode": 82400}, "82102": {"division": "Beragama", "district": "HB", "postalCode": 82102}, "82618": {"division": "Beralihela", "district": "HB", "postalCode": 82618}, "82458": {"division": "Bowalagama", "district": "HB", "postalCode": 82458}, "82002": {"division": "Bundala", "district": "HB", "postalCode": 82002}, "82619": {"division": "Ellagala", "district": "HB", "postalCode": 82619}, "82506": {"division": "Gangulandeniya", "district": "HB", "postalCode": 82506}, "82420": {"division": "Getamanna", "district": "HB", "postalCode": 82420}, "82401": {"division": "Goda Koggalla", "district": "HB", "postalCode": 82401}, "82602": {"division": "GonagamuwaUduwila", "district": "HB", "postalCode": 82602}, "82006": {"division": "Gonnoruwa", "district": "HB", "postalCode": 82006}, "82248": {"division": "Hakuruwela", "district": "HB", "postalCode": 82248}, "82000": {"division": "Hambantota", "district": "HB", "postalCode": 82000}, "82456": {"division": "Horewelagoda", "district": "HB", "postalCode": 82456}, "40000": {"division": "Jaffna", "district": "JA", "postalCode": 40000}, "12200": {"division": "Agalawatta", "district": "KT", "postalCode": 12200}, "12524": {"division": "Alubomulla", "district": "KT", "postalCode": 12524}, "12080": {"division": "Alutgama", "district": "KT", "postalCode": 12080}, "12320": {"division": "Anguruwatota", "district": "KT", "postalCode": 12320}, "12230": {"division": "Baduraliya", "district": "KT", "postalCode": 12230}, "12530": {"division": "Bandaragama", "district": "KT", "postalCode": 12530}, "12224": {"division": "Bellana", "district": "KT", "postalCode": 12224}, "12070": {"division": "Beruwala", "district": "KT", "postalCode": 12070}, "12008": {"division": "Bolossagama", "district": "KT", "postalCode": 12008}, "12024": {"division": "Bombuwala", "district": "KT", "postalCode": 12024}, "12142": {"division": "Boralugoda", "district": "KT", "postalCode": 12142}, "12300": {"division": "Bulathsinhala", "district": "KT", "postalCode": 12300}, "12148": {"division": "DanawalaThiniyawala", "district": "KT", "postalCode": 12148}, "12304": {"division": "Delmella", "district": "KT", "postalCode": 12304}, "12090": {"division": "Dharga Town", "district": "KT", "postalCode": 12090}, "12308": {"division": "Diwalakada", "district": "KT", "postalCode": 12308}, "12020": {"division": "Dodangoda", "district": "KT", "postalCode": 12020}, "12416": {"division": "Dombagoda", "district": "KT", "postalCode": 12416}, "12005": {"division": "Galpatha", "district": "KT", "postalCode": 12005}, "12016": {"division": "Gamagoda", "district": "KT", "postalCode": 12016}, "12410": {"division": "Gonapola", "district": "KT", "postalCode": 12410}, "12310": {"division": "Govinna", "district": "KT", "postalCode": 12310}, "71204": {"division": "Alawatura", "district": "KE", "postalCode": 71204}, "71607": {"division": "Algama", "district": "KE", "postalCode": 71607}, "71508": {"division": "Alutnuwara", "district": "KE", "postalCode": 71508}, "71546": {"division": "Ambalakanda", "district": "KE", "postalCode": 71546}, "71503": {"division": "Ambulugala", "district": "KE", "postalCode": 71503}, "71320": {"division": "Amitirigala", "district": "KE", "postalCode": 71320}, "71232": {"division": "Ampagala", "district": "KE", "postalCode": 71232}, "71403": {"division": "Anhettigama", "district": "KE", "postalCode": 71403}, "71540": {"division": "Aranayaka", "district": "KE", "postalCode": 71540}, "71041": {"division": "Aruggammana", "district": "KE", "postalCode": 71041}, "71363": {"division": "Atale", "district": "KE", "postalCode": 71363}, "71321": {"division": "Batuwita", "district": "KE", "postalCode": 71321}, "71044": {"division": "Beligala(Sab)", "district": "KE", "postalCode": 71044}, "71706": {"division": "Berannawa", "district": "KE", "postalCode": 71706}, "71612": {"division": "Bopitiya", "district": "KE", "postalCode": 71612}, "71418": {"division": "Boralankada", "district": "KE", "postalCode": 71418}, "71208": {"division": "Bossella", "district": "KE", "postalCode": 71208}, "71230": {"division": "Bulathkohupitiya", "district": "KE", "postalCode": 71230}, "71034": {"division": "Damunupola", "district": "KE", "postalCode": 71034}, "71037": {"division": "Debathgama", "district": "KE", "postalCode": 71037}, "71237": {"division": "Dedugala", "district": "KE", "postalCode": 71237}, "71022": {"division": "Deewala Pallegama", "district": "KE", "postalCode": 71022}, "71400": {"division": "Dehiowita", "district": "KE", "postalCode": 71400}, "71009": {"division": "Deldeniya", "district": "KE", "postalCode": 71009}, "71401": {"division": "Deloluwa", "district": "KE", "postalCode": 71401}, "71430": {"division": "Deraniyagala", "district": "KE", "postalCode": 71430}, "71050": {"division": "Dewalegama", "district": "KE", "postalCode": 71050}, "71527": {"division": "Dewanagala", "district": "KE", "postalCode": 71527}, "71115": {"division": "Dombemada", "district": "KE", "postalCode": 71115}, "71601": {"division": "Dorawaka", "district": "KE", "postalCode": 71601}, "60416": {"division": "Alahengama", "district": "KG", "postalCode": 60416}, "60182": {"division": "Alahitiyawa", "district": "KG", "postalCode": 60182}, "60047": {"division": "Alawatuwala", "district": "KG", "postalCode": 60047}, "60280": {"division": "Alawwa", "district": "KG", "postalCode": 60280}, "60036": {"division": "Ambakote", "district": "KG", "postalCode": 60036}, "60650": {"division": "Ambanpola", "district": "KG", "postalCode": 60650}, "60074": {"division": "Anhandiya", "district": "KG", "postalCode": 60074}, "60214": {"division": "Anukkane", "district": "KG", "postalCode": 60214}, "60308": {"division": "Aragoda", "district": "KG", "postalCode": 60308}, "60706": {"division": "Ataragalla", "district": "KG", "postalCode": 60706}, "60462": {"division": "Awulegama", "district": "KG", "postalCode": 60462}, "60604": {"division": "Balalla", "district": "KG", "postalCode": 60604}, "60347": {"division": "Bamunukotuwa", "district": "KG", "postalCode": 60347}, "60424": {"division": "Bandara Koswatta", "district": "KG", "postalCode": 60424}, "60450": {"division": "Bingiriya", "district": "KG", "postalCode": 60450}, "60107": {"division": "Bogamulla", "district": "KG", "postalCode": 60107}, "60155": {"division": "Bopitiya", "district": "KG", "postalCode": 60155}, "60437": {"division": "Boraluwewa", "district": "KG", "postalCode": 60437}, "60027": {"division": "Boyagane", "district": "KG", "postalCode": 60027}, "60291": {"division": "Bujjomuwa", "district": "KG", "postalCode": 60291}, "60076": {"division": "Buluwala", "district": "KG", "postalCode": 60076}, "60130": {"division": "Dambadeniya", "district": "KG", "postalCode": 60130}, "60174": {"division": "Daraluwa", "district": "KG", "postalCode": 60174}, "60228": {"division": "Deegalla", "district": "KG", "postalCode": 60228}, "60044": {"division": "Delwite", "district": "KG", "postalCode": 60044}, "60024": {"division": "Demataluwa", "district": "KG", "postalCode": 60024}, "60544": {"division": "Diddeniya", "district": "KG", "postalCode": 60544}, "60485": {"division": "Digannewa", "district": "KG", "postalCode": 60485}, "60472": {"division": "Divullegoda", "district": "KG", "postalCode": 60472}, "60530": {"division": "Dodangaslanda", "district": "KG", "postalCode": 60530}, "60013": {"division": "Doratiyawa", "district": "KG", "postalCode": 60013}, "60260": {"division": "Dummalasuriya", "district": "KG", "postalCode": 60260}, "60716": {"division": "Ehetuwewa", "district": "KG", "postalCode": 60716}, "60156": {"division": "Elibichchiya", "district": "KG", "postalCode": 60156}, "60718": {"division": "Embogama", "district": "KG", "postalCode": 60718}, "60266": {"division": "Etungahakotuwa", "district": "KG", "postalCode": 60266}, "60700": {"division": "Galgamuwa", "district": "KG", "postalCode": 60700}, "60712": {"division": "Gallewa", "district": "KG", "postalCode": 60712}, "60752": {"division": "Girathalana", "district": "KG", "postalCode": 60752}, "60140": {"division": "Giriulla", "district": "KG", "postalCode": 60140}, "60522": {"division": "Gokaralla", "district": "KG", "postalCode": 60522}, "60170": {"division": "Gonawila", "district": "KG", "postalCode": 60170}, "60441": {"division": "Halmillawewa", "district": "KG", "postalCode": 60441}, "60414": {"division": "Hengamuwa", "district": "KG", "postalCode": 60414}, "60430": {"division": "Hettipola", "district": "KG", "postalCode": 60430}, "60486": {"division": "Hilogama", "district": "KG", "postalCode": 60486}, "60034": {"division": "Hindagolla", "district": "KG", "postalCode": 60034}, "60546": {"division": "Hiriyala Lenawa", "district": "KG", "postalCode": 60546}, "60458": {"division": "Hiruwalpola", "district": "KG", "postalCode": 60458}, "60181": {"division": "Horambawa", "district": "KG", "postalCode": 60181}, "60474": {"division": "Hulogedara", "district": "KG", "postalCode": 60474}, "60477": {"division": "Hulugalla", "district": "KG", "postalCode": 60477}, "41000": {"division": "Mannar", "district": "MB", "postalCode": 41000}, "81400": {"division": "Akuressa", "district": "MH", "postalCode": 81400}, "81475": {"division": "Alapaladeniya", "district": "MH", "postalCode": 81475}, "81032": {"division": "Aparekka", "district": "MH", "postalCode": 81032}, "81402": {"division": "Athuraliya", "district": "MH", "postalCode": 81402}, "81614": {"division": "Bengamuwa", "district": "MH", "postalCode": 81614}, "81541": {"division": "Beralapanathara", "district": "MH", "postalCode": 81541}, "81412": {"division": "Bopagoda", "district": "MH", "postalCode": 81412}, "81612": {"division": "Dampahala", "district": "MH", "postalCode": 81612}, "81452": {"division": "Deegala Llenama", "district": "MH", "postalCode": 81452}, "81320": {"division": "Deiyandara", "district": "MH", "postalCode": 81320}, "81477": {"division": "Dellawa", "district": "MH", "postalCode": 81477}, "81314": {"division": "Denagama", "district": "MH", "postalCode": 81314}, "81730": {"division": "Denipitiya", "district": "MH", "postalCode": 81730}, "81500": {"division": "Deniyaya", "district": "MH", "postalCode": 81500}, "81454": {"division": "Derangala", "district": "MH", "postalCode": 81454}, "81160": {"division": "Devinuwara (Dondra)", "district": "MH", "postalCode": 81160}, "81200": {"division": "Dikwella", "district": "MH", "postalCode": 81200}, "81038": {"division": "Diyagaha", "district": "MH", "postalCode": 81038}, "81422": {"division": "Diyalape", "district": "MH", "postalCode": 81422}, "81170": {"division": "Gandara", "district": "MH", "postalCode": 81170}, "81408": {"division": "Godapitiya", "district": "MH", "postalCode": 81408}, "91302": {"division": "Angunakolawewa", "district": "MJ", "postalCode": 91302}, "91516": {"division": "Ayiwela", "district": "MJ", "postalCode": 91516}, "91070": {"division": "Badalkumbura", "district": "MJ", "postalCode": 91070}, "91058": {"division": "Baduluwela", "district": "MJ", "postalCode": 91058}, "91554": {"division": "Bakinigahawela", "district": "MJ", "postalCode": 91554}, "91295": {"division": "Balaharuwa", "district": "MJ", "postalCode": 91295}, "91500": {"division": "Bibile", "district": "MJ", "postalCode": 91500}, "91038": {"division": "Buddama", "district": "MJ", "postalCode": 91038}, "91100": {"division": "Buttala", "district": "MJ", "postalCode": 91100}, "91050": {"division": "Dambagalla", "district": "MJ", "postalCode": 91050}, "91514": {"division": "Diyakobala", "district": "MJ", "postalCode": 91514}, "91010": {"division": "Dombagahawela", "district": "MJ", "postalCode": 91010}, "70254": {"division": "Ekamutugama", "district": "MJ", "postalCode": 70254}, "91502": {"division": "Ekiriyankumbura", "district": "MJ", "postalCode": 91502}, "91020": {"division": "Ethimalewewa", "district": "MJ", "postalCode": 91020}, "42000": {"division": "Mullativu", "district": "MP", "postalCode": 42000}, "22094": {"division": "Agarapathana", "district": "NW", "postalCode": 22094}, "20678": {"division": "Ambagamuwa", "district": "NW", "postalCode": 20678}, "20686": {"division": "Ambatalawa", "district": "NW", "postalCode": 20686}, "22216": {"division": "Ambewela", "district": "NW", "postalCode": 22216}, "22060": {"division": "Bogawantalawa", "district": "NW", "postalCode": 22060}, "22095": {"division": "Bopattalawa", "district": "NW", "postalCode": 22095}, "20684": {"division": "Dagampitiya", "district": "NW", "postalCode": 20684}, "22096": {"division": "Dayagama Bazaar", "district": "NW", "postalCode": 22096}, "22050": {"division": "Dikoya", "district": "NW", "postalCode": 22050}, "20567": {"division": "Doragala", "district": "NW", "postalCode": 20567}, "22002": {"division": "Dunukedeniya", "district": "NW", "postalCode": 22002}, "20680": {"division": "Ginigathena", "district": "NW", "postalCode": 20680}, "22226": {"division": "Gonakele", "district": "NW", "postalCode": 22226}, "22208": {"division": "Haggala", "district": "NW", "postalCode": 22208}, "22240": {"division": "Halgranoya", "district": "NW", "postalCode": 22240}, "22044": {"division": "Hangarapitiya", "district": "NW", "postalCode": 22044}, "51014": {"division": "Alutwewa", "district": "PR", "postalCode": 51014}, "51100": {"division": "Aralaganwila", "district": "PR", "postalCode": 51100}, "51072": {"division": "Aselapura", "district": "PR", "postalCode": 51072}, "51235": {"division": "Attanakadawala", "district": "PR", "postalCode": 51235}, "51250": {"division": "Bakamuna", "district": "PR", "postalCode": 51250}, "51092": {"division": "Dalukana", "district": "PR", "postalCode": 51092}, "51106": {"division": "Damminna", "district": "PR", "postalCode": 51106}, "51094": {"division": "Dewagala", "district": "PR", "postalCode": 51094}, "51031": {"division": "Dimbulagala", "district": "PR", "postalCode": 51031}, "51428": {"division": "Divulankadawala", "district": "PR", "postalCode": 51428}, "51104": {"division": "Divuldamana", "district": "PR", "postalCode": 51104}, "51225": {"division": "Diyabeduma", "district": "PR", "postalCode": 51225}, "51504": {"division": "Diyasenpura", "district": "PR", "postalCode": 51504}, "51258": {"division": "Elahera", "district": "PR", "postalCode": 51258}, "51034": {"division": "Ellewewa", "district": "PR", "postalCode": 51034}, "51416": {"division": "Galamuna", "district": "PR", "postalCode": 51416}, "51375": {"division": "Galoya Junction", "district": "PR", "postalCode": 51375}, "61012": {"division": "Adippala", "district": "PX", "postalCode": 61012}, "61024": {"division": "Ambakandawila", "district": "PX", "postalCode": 61024}, "61500": {"division": "Anamaduwa", "district": "PX", "postalCode": 61500}, "61508": {"division": "Andigama", "district": "PX", "postalCode": 61508}, "61264": {"division": "Angunawila", "district": "PX", "postalCode": 61264}, "61328": {"division": "Attawilluwa", "district": "PX", "postalCode": 61328}, "61238": {"division": "Bangadeniya", "district": "PX", "postalCode": 61238}, "61262": {"division": "Baranankattuwa", "district": "PX", "postalCode": 61262}, "61246": {"division": "Battuluoya", "district": "PX", "postalCode": 61246}, "61136": {"division": "Bujjampola", "district": "PX", "postalCode": 61136}, "61000": {"division": "Chilaw", "district": "PX", "postalCode": 61000}, "61130": {"division": "Dankotuwa", "district": "PX", "postalCode": 61130}, "61192": {"division": "Dunkannawa", "district": "PX", "postalCode": 61192}, "61308": {"division": "Eluwankulama", "district": "PX", "postalCode": 61308}, "61343": {"division": "Ettale", "district": "PX", "postalCode": 61343}, "61233": {"division": "Galmuruwa", "district": "PX", "postalCode": 61233}, "61154": {"division": "Ihala Kottaramulla", "district": "PX", "postalCode": 61154}, "61316": {"division": "Ihala Puliyankulama", "district": "PX", "postalCode": 61316}, "61018": {"division": "Ilippadeniya", "district": "PX", "postalCode": 61018}, "70082": {"division": "Akarella", "district": "RN", "postalCode": 70082}, "70294": {"division": "Atakalanpanna", "district": "RN", "postalCode": 70294}, "70024": {"division": "Ayagama", "district": "RN", "postalCode": 70024}, "70100": {"division": "Balangoda", "district": "RN", "postalCode": 70100}, "70504": {"division": "Batatota", "district": "RN", "postalCode": 70504}, "70140": {"division": "Belihuloya", "district": "RN", "postalCode": 70140}, "70131": {"division": "Bolthumbe", "district": "RN", "postalCode": 70131}, "70344": {"division": "Bomluwageaina", "district": "RN", "postalCode": 70344}, "70346": {"division": "Bulutota", "district": "RN", "postalCode": 70346}, "70019": {"division": "Dambuluwana", "district": "RN", "postalCode": 70019}, "70455": {"division": "Daugala", "district": "RN", "postalCode": 70455}, "70042": {"division": "Dela", "district": "RN", "postalCode": 70042}, "70046": {"division": "Delwala", "district": "RN", "postalCode": 70046}, "70332": {"division": "Demuwatha", "district": "RN", "postalCode": 70332}, "70017": {"division": "Dodampe", "district": "RN", "postalCode": 70017}, "70404": {"division": "Doloswalakanda", "district": "RN", "postalCode": 70404}, "70495": {"division": "Dumbara Manana", "district": "RN", "postalCode": 70495}, "70600": {"division": "Eheliyagoda", "district": "RN", "postalCode": 70600}, "70032": {"division": "Elapatha", "district": "RN", "postalCode": 70032}, "70492": {"division": "Ellagawa", "district": "RN", "postalCode": 70492}, "70552": {"division": "Ellaulla", "district": "RN", "postalCode": 70552}, "70606": {"division": "Ellawala", "district": "RN", "postalCode": 70606}, "70200": {"division": "Embilipitiya", "district": "RN", "postalCode": 70200}, "70506": {"division": "Eratna", "district": "RN", "postalCode": 70506}, "70602": {"division": "Erepola", "district": "RN", "postalCode": 70602}, "70156": {"division": "Gabbela", "district": "RN", "postalCode": 70156}, "70062": {"division": "Gallella", "district": "RN", "postalCode": 70062}, "70195": {"division": "Gangeyaya", "district": "RN", "postalCode": 70195}, "70026": {"division": "Gawaragiriya", "district": "RN", "postalCode": 70026}, "70620": {"division": "Getahetta", "district": "RN", "postalCode": 70620}, "70002": {"division": "Gillimale", "district": "RN", "postalCode": 70002}, "70556": {"division": "Godagampola", "district": "RN", "postalCode": 70556}, "31304": {"division": "Agbopura", "district": "TC", "postalCode": 31304}, "31028": {"division": "Buckmigama", "district": "TC", "postalCode": 31028}, "31050": {"division": "Chinabay", "district": "TC", "postalCode": 31050}, "31226": {"division": "Dehiwatte", "district": "TC", "postalCode": 31226}, "31236": {"division": "Echchilampattai", "district": "TC", "postalCode": 31236}, "31318": {"division": "Galmetiyawa", "district": "TC", "postalCode": 31318}, "31026": {"division": "Gomarankadawala", "district": "TC", "postalCode": 31026}, "31212": {"division": "Kaddaiparichchan", "district": "TC", "postalCode": 31212}, "31032": {"division": "Kanniya", "district": "TC", "postalCode": 31032}, "31300": {"division": "Kantalai", "district": "TC", "postalCode": 31300}, "43000": {"division": "Vavuniya", "district": "VA", "postalCode": 43000}, "21142": {"division": "Akuramboda", "district": "MT", "postalCode": 21142}, "21004": {"division": "Alwatta", "district": "MT", "postalCode": 21004}, "21504": {"division": "Ambana", "district": "MT", "postalCode": 21504}, "21512": {"division": "Ataragallewa", "district": "MT", "postalCode": 21512}, "21212": {"division": "Bambaragaswewa", "district": "MT", "postalCode": 21212}, "21214": {"division": "Beligamuwa", "district": "MT", "postalCode": 21214}, "21100": {"division": "Dambulla", "district": "MT", "postalCode": 21100}, "21032": {"division": "Dankanda", "district": "MT", "postalCode": 21032}, "21552": {"division": "Devagiriya", "district": "MT", "postalCode": 21552}, "21206": {"division": "Dewahuwa", "district": "MT", "postalCode": 21206}, "21054": {"division": "Dullewa", "district": "MT", "postalCode": 21054}, "21046": {"division": "Dunkolawatta", "district": "MT", "postalCode": 21046}, "21538": {"division": "Dunuwilapitiya", "district": "MT", "postalCode": 21538}, "21012": {"division": "Elkaduwa", "district": "MT", "postalCode": 21012}, "21108": {"division": "Erawula Junction", "district": "MT", "postalCode": 21108}, "21402": {"division": "Etanawala", "district": "MT", "postalCode": 21402}, "21200": {"division": "Galewela", "district": "MT", "postalCode": 21200}, "21068": {"division": "Gammaduwa", "district": "MT", "postalCode": 21068}, "21404": {"division": "Gangala", "district": "MT", "postalCode": 21404}, "32300": {"division": "Kalmunai", "district": "APR", "postalCode": 32300}, "32405": {"division": "Kannakipuram", "district": "APR", "postalCode": 32405}, "32512": {"division": "Labunoruwa", "district": "APR", "postalCode": 32512}, "32450": {"division": "lmkkamam", "district": "APR", "postalCode": 32450}, "32016": {"division": "Madawalalanda", "district": "APR", "postalCode": 32016}, "32018": {"division": "Mahanagapura", "district": "APR", "postalCode": 32018}, "32070": {"division": "Mahaoya", "district": "APR", "postalCode": 32070}, "32198": {"division": "Malwatta", "district": "APR", "postalCode": 32198}, "32069": {"division": "Mangalagama", "district": "APR", "postalCode": 32069}, "32314": {"division": "Marathamune", "district": "APR", "postalCode": 32314}, "32158": {"division": "Mawanagama", "district": "APR", "postalCode": 32158}, "32360": {"division": "Oluvil", "district": "APR", "postalCode": 32360}, "32100": {"division": "Padiyatalawa", "district": "APR", "postalCode": 32100}, "32034": {"division": "Pahalalanda", "district": "APR", "postalCode": 32034}, "32354": {"division": "Palamunai", "district": "APR", "postalCode": 32354}, "32508": {"division": "Panama", "district": "APR", "postalCode": 32508}, "32022": {"division": "Pannalagama", "district": "APR", "postalCode": 32022}, "50370": {"division": "Kapugallawa", "district": "AD", "postalCode": 50370}, "50232": {"division": "Karagahawewa", "district": "AD", "postalCode": 50232}, "50088": {"division": "Labunoruwa", "district": "AD", "postalCode": 50088}, "50262": {"division": "lhala Halmillewa", "district": "AD", "postalCode": 50262}, "50304": {"division": "lhalagama", "district": "AD", "postalCode": 50304}, "50280": {"division": "lpologama", "district": "AD", "postalCode": 50280}, "50130": {"division": "Madatugama", "district": "AD", "postalCode": 50130}, "50126": {"division": "Maha Elagamuwa", "district": "AD", "postalCode": 50126}, "50196": {"division": "Mahabulankulama", "district": "AD", "postalCode": 50196}, "50270": {"division": "Mahailluppallama", "district": "AD", "postalCode": 50270}, "50306": {"division": "Mahakanadarawa", "district": "AD", "postalCode": 50306}, "50327": {"division": "Mahapothana", "district": "AD", "postalCode": 50327}, "50574": {"division": "Mahasenpura", "district": "AD", "postalCode": 50574}, "50022": {"division": "Mahawilachchiya", "district": "AD", "postalCode": 50022}, "50384": {"division": "Mailagaswewa", "district": "AD", "postalCode": 50384}, "50236": {"division": "Malwanagama", "district": "AD", "postalCode": 50236}, "50182": {"division": "Maneruwa", "district": "AD", "postalCode": 50182}, "50080": {"division": "Maradankadawala", "district": "AD", "postalCode": 50080}, "50308": {"division": "Maradankalla", "district": "AD", "postalCode": 50308}, "50500": {"division": "Medawachchiya", "district": "AD", "postalCode": 50500}, "50334": {"division": "Megodawewa", "district": "AD", "postalCode": 50334}, "50572": {"division": "Padavi Maithripura", "district": "AD", "postalCode": 50572}, "50582": {"division": "Padavi arakramapura", "district": "AD", "postalCode": 50582}, "50587": {"division": "Padavi Sripura", "district": "AD", "postalCode": 50587}, "50588": {"division": "Padavi Sritissapura", "district": "AD", "postalCode": 50588}, "50570": {"division": "Padaviya", "district": "AD", "postalCode": 50570}, "50338": {"division": "Padikaramaduwa", "district": "AD", "postalCode": 50338}, "50206": {"division": "Pahala Halmillewa", "district": "AD", "postalCode": 50206}, "50220": {"division": "Pahala Maragahawe", "district": "AD", "postalCode": 50220}, "50244": {"division": "Pahalagama", "district": "AD", "postalCode": 50244}, "50111": {"division": "Palagala", "district": "AD", "postalCode": 50111}, "50144": {"division": "Palugaswewa", "district": "AD", "postalCode": 50144}, "50448": {"division": "Pandukabayapura", "district": "AD", "postalCode": 50448}, "50029": {"division": "Pandulagama", "district": "AD", "postalCode": 50029}, "50326": {"division": "Parakumpura", "district": "AD", "postalCode": 50326}, "50354": {"division": "Parangiyawadiya", "district": "AD", "postalCode": 50354}, "50055": {"division": "Parasangahawewa", "district": "AD", "postalCode": 50055}, "50020": {"division": "Pemaduwa", "district": "AD", "postalCode": 50020}, "50004": {"division": "Perimiyankulama", "district": "AD", "postalCode": 50004}, "50512": {"division": "Pihimbiyagolewa", "district": "AD", "postalCode": 50512}, "90060": {"division": "Hali Ela", "district": "BD", "postalCode": 90060}, "90224": {"division": "Hangunnawa", "district": "BD", "postalCode": 90224}, "90160": {"division": "Haputale", "district": "BD", "postalCode": 90160}, "90724": {"division": "Hebarawa", "district": "BD", "postalCode": 90724}, "90112": {"division": "Heeloya", "district": "BD", "postalCode": 90112}, "90122": {"division": "Helahalpe", "district": "BD", "postalCode": 90122}, "90094": {"division": "Helapupula", "district": "BD", "postalCode": 90094}, "90358": {"division": "Hewanakumbura", "district": "BD", "postalCode": 90358}, "90508": {"division": "Hingurukaduwa", "district": "BD", "postalCode": 90508}, "90524": {"division": "Hopton", "district": "BD", "postalCode": 90524}, "90167": {"division": "Idalgashinna", "district": "BD", "postalCode": 90167}, "90063": {"division": "Jangulla", "district": "BD", "postalCode": 90063}, "90052": {"division": "Kahataruppa", "district": "BD", "postalCode": 90052}, "90352": {"division": "Kalubululanda", "district": "BD", "postalCode": 90352}, "90546": {"division": "Kalugahakandura", "district": "BD", "postalCode": 90546}, "90186": {"division": "Kalupahana", "district": "BD", "postalCode": 90186}, "90020": {"division": "Kandaketya", "district": "BD", "postalCode": 90020}, "90070": {"division": "Kandegedara", "district": "BD", "postalCode": 90070}, "90356": {"division": "Kandepuhulpola", "district": "BD", "postalCode": 90356}, "90068": {"division": "Landewela", "district": "BD", "postalCode": 90068}, "90106": {"division": "Liyangahawela", "district": "BD", "postalCode": 90106}, "90530": {"division": "Lunugala", "district": "BD", "postalCode": 90530}, "90310": {"division": "Lunuwatta", "district": "BD", "postalCode": 90310}, "90535": {"division": "Madulsima", "district": "BD", "postalCode": 90535}, "90700": {"division": "Mahiyanganaya", "district": "BD", "postalCode": 90700}, "90114": {"division": "Makulella", "district": "BD", "postalCode": 90114}, "90754": {"division": "Malgoda", "district": "BD", "postalCode": 90754}, "90022": {"division": "Maliyadda", "district": "BD", "postalCode": 90022}, "90730": {"division": "Mapakadawewa", "district": "BD", "postalCode": 90730}, "90328": {"division": "Maspanna", "district": "BD", "postalCode": 90328}, "90582": {"division": "Maussagolla", "district": "BD", "postalCode": 90582}, "90218": {"division": "Medawela Udukinda", "district": "BD", "postalCode": 90218}, "90518": {"division": "Medawelagama", "district": "BD", "postalCode": 90518}, "90015": {"division": "Meegahakiula", "district": "BD", "postalCode": 90015}, "90540": {"division": "Metigahatenna", "district": "BD", "postalCode": 90540}, "90168": {"division": "Ohiya", "district": "BD", "postalCode": 90168}, "90756": {"division": "Pahalarathkinda", "district": "BD", "postalCode": 90756}, "90534": {"division": "Pallekiruwa", "district": "BD", "postalCode": 90534}, "90500": {"division": "Passara", "district": "BD", "postalCode": 90500}, "90071": {"division": "Pathanewatta", "district": "BD", "postalCode": 90071}, "90138": {"division": "Pattiyagedara", "district": "BD", "postalCode": 90138}, "10650": {"division": "Hanwella", "district": "CO", "postalCode": 10650}, "10714": {"division": "Hewainna", "district": "CO", "postalCode": 10714}, "10232": {"division": "Hiripitya", "district": "CO", "postalCode": 10232}, "10118": {"division": "Hokandara", "district": "CO", "postalCode": 10118}, "10200": {"division": "Homagama", "district": "CO", "postalCode": 10200}, "10502": {"division": "Horagala", "district": "CO", "postalCode": 10502}, "10640": {"division": "Kaduwela", "district": "CO", "postalCode": 10640}, "10508": {"division": "Kahawala", "district": "CO", "postalCode": 10508}, "10718": {"division": "Kalatuwawa", "district": "CO", "postalCode": 10718}, "10306": {"division": "Madapatha", "district": "CO", "postalCode": 10306}, "10280": {"division": "Maharagama", "district": "CO", "postalCode": 10280}, "10115": {"division": "Malabe", "district": "CO", "postalCode": 10115}, "10504": {"division": "Meegoda", "district": "CO", "postalCode": 10504}, "10500": {"division": "Padukka", "district": "CO", "postalCode": 10500}, "80054": {"division": "Gonamulla", "district": "GL", "postalCode": 80054}, "80230": {"division": "Gonapinuwala", "district": "GL", "postalCode": 80230}, "80630": {"division": "Habaraduwa", "district": "GL", "postalCode": 80630}, "80506": {"division": "Haburugala", "district": "GL", "postalCode": 80506}, "80146": {"division": "Halvitigala", "district": "GL", "postalCode": 80146}, "80132": {"division": "Hawpe", "district": "GL", "postalCode": 80132}, "80240": {"division": "Hikkaduwa", "district": "GL", "postalCode": 80240}, "80080": {"division": "Hiniduma", "district": "GL", "postalCode": 80080}, "80056": {"division": "Hiyare", "district": "GL", "postalCode": 80056}, "80134": {"division": "Ihala Walpola", "district": "GL", "postalCode": 80134}, "80460": {"division": "Kahaduwa", "district": "GL", "postalCode": 80460}, "80312": {"division": "Kahawa", "district": "GL", "postalCode": 80312}, "80136": {"division": "Kananke Bazaar", "district": "GL", "postalCode": 80136}, "80151": {"division": "Karagoda", "district": "GL", "postalCode": 80151}, "80432": {"division": "lhalahewessa", "district": "GL", "postalCode": 80432}, "80130": {"division": "lmaduwa", "district": "GL", "postalCode": 80130}, "80510": {"division": "lnduruwa", "district": "GL", "postalCode": 80510}, "80152": {"division": "Magedara", "district": "GL", "postalCode": 80152}, "80144": {"division": "Malgalla Talangalla", "district": "GL", "postalCode": 80144}, "80112": {"division": "Mapalagama", "district": "GL", "postalCode": 80112}, "80166": {"division": "Mapalagama Central", "district": "GL", "postalCode": 80166}, "80424": {"division": "Mattaka", "district": "GL", "postalCode": 80424}, "80092": {"division": "Meda-Keembiya", "district": "GL", "postalCode": 80092}, "80330": {"division": "Meetiyagoda", "district": "GL", "postalCode": 80330}, "80142": {"division": "Opatha", "district": "GL", "postalCode": 80142}, "80075": {"division": "Panangala", "district": "GL", "postalCode": 80075}, "11020": {"division": "Ganemulla", "district": "GQ", "postalCode": 11020}, "11630": {"division": "GonawalaWP", "district": "GQ", "postalCode": 11630}, "11618": {"division": "Heiyanthuduwa", "district": "GQ", "postalCode": 11618}, "11715": {"division": "Henegama", "district": "GQ", "postalCode": 11715}, "11568": {"division": "Hinatiyana", "district": "GQ", "postalCode": 11568}, "11734": {"division": "Hiswella", "district": "GQ", "postalCode": 11734}, "11564": {"division": "Horampella", "district": "GQ", "postalCode": 11564}, "11262": {"division": "Hunumulla", "district": "GQ", "postalCode": 11262}, "11265": {"division": "Ihala Madampella", "district": "GQ", "postalCode": 11265}, "11856": {"division": "Imbulgoda", "district": "GQ", "postalCode": 11856}, "11350": {"division": "Ja-Ela", "district": "GQ", "postalCode": 11350}, "11850": {"division": "Kadawatha", "district": "GQ", "postalCode": 11850}, "11144": {"division": "Kahatowita", "district": "GQ", "postalCode": 11144}, "11875": {"division": "Kalagedihena", "district": "GQ", "postalCode": 11875}, "11160": {"division": "Kaleliya", "district": "GQ", "postalCode": 11160}, "11224": {"division": "Kaluaggala", "district": "GQ", "postalCode": 11224}, "11320": {"division": "Kandana", "district": "GQ", "postalCode": 11320}, "10662": {"division": "Kapugoda", "district": "GQ", "postalCode": 10662}, "11204": {"division": "Loluwagoda", "district": "GQ", "postalCode": 11204}, "11062": {"division": "Lunugama", "district": "GQ", "postalCode": 11062}, "11114": {"division": "Mabodale", "district": "GQ", "postalCode": 11114}, "11033": {"division": "Madelgamuwa", "district": "GQ", "postalCode": 11033}, "11358": {"division": "Makewita", "district": "GQ", "postalCode": 11358}, "11640": {"division": "Makola", "district": "GQ", "postalCode": 11640}, "11670": {"division": "Malwana", "district": "GQ", "postalCode": 11670}, "11061": {"division": "Mandawala", "district": "GQ", "postalCode": 11061}, "11260": {"division": "Marandagahamula", "district": "GQ", "postalCode": 11260}, "11234": {"division": "Mellawagedara", "district": "GQ", "postalCode": 11234}, "11150": {"division": "Pallewela", "district": "GQ", "postalCode": 11150}, "11370": {"division": "Pamunugama", "district": "GQ", "postalCode": 11370}, "11214": {"division": "Pamunuwatta", "district": "GQ", "postalCode": 11214}, "11890": {"division": "Pasyala", "district": "GQ", "postalCode": 11890}, "11830": {"division": "Peliyagoda", "district": "GQ", "postalCode": 11830}, "82120": {"division": "Hungama", "district": "HB", "postalCode": 82120}, "82412": {"division": "Ihala Beligala", "district": "HB", "postalCode": 82412}, "82462": {"division": "Ittademaliya", "district": "HB", "postalCode": 82462}, "82252": {"division": "Julampitiya", "district": "HB", "postalCode": 82252}, "82126": {"division": "Kahandamodara", "district": "HB", "postalCode": 82126}, "82108": {"division": "Lunama", "district": "HB", "postalCode": 82108}, "82634": {"division": "Lunugamwehera", "district": "HB", "postalCode": 82634}, "82608": {"division": "Magama", "district": "HB", "postalCode": 82608}, "82016": {"division": "Mahagalwewa", "district": "HB", "postalCode": 82016}, "82109": {"division": "Mamadala", "district": "HB", "postalCode": 82109}, "82254": {"division": "Medamulana", "district": "HB", "postalCode": 82254}, "82270": {"division": "Middeniya", "district": "HB", "postalCode": 82270}, "82014": {"division": "Migahajandur", "district": "HB", "postalCode": 82014}, "82636": {"division": "Padawkema", "district": "HB", "postalCode": 82636}, "82008": {"division": "Pahala Andarawewa", "district": "HB", "postalCode": 82008}, "82454": {"division": "Pallekanda", "district": "HB", "postalCode": 82454}, "82554": {"division": "Rammalawarapitiya", "district": "HB", "postalCode": 82554}, "82612": {"division": "Ranakeliya", "district": "HB", "postalCode": 82612}, "null": {}, "12236": {"division": "Gurulubadda", "district": "KT", "postalCode": 12236}, "12055": {"division": "Halkandawila", "district": "KT", "postalCode": 12055}, "12538": {"division": "Haltota", "district": "KT", "postalCode": 12538}, "12118": {"division": "Halwala", "district": "KT", "postalCode": 12118}, "12306": {"division": "Halwatura", "district": "KT", "postalCode": 12306}, "12234": {"division": "Hedigalla Colony", "district": "KT", "postalCode": 12234}, "12400": {"division": "Horana", "district": "KT", "postalCode": 12400}, "12116": {"division": "Ittapana", "district": "KT", "postalCode": 12116}, "12078": {"division": "Kalawila Kiranthidiya", "district": "KT", "postalCode": 12078}, "12000": {"division": "Kalutara", "district": "KT", "postalCode": 12000}, "12418": {"division": "Kananwila", "district": "KT", "postalCode": 12418}, "12428": {"division": "Kandanagama", "district": "KT", "postalCode": 12428}, "12440": {"division": "lngiriya", "district": "KT", "postalCode": 12440}, "12060": {"division": "Maggona", "district": "KT", "postalCode": 12060}, "12210": {"division": "Mahagama", "district": "KT", "postalCode": 12210}, "12126": {"division": "Mahakalupahana", "district": "KT", "postalCode": 12126}, "12100": {"division": "Matugama", "district": "KT", "postalCode": 12100}, "12130": {"division": "Meegahatenna", "district": "KT", "postalCode": 12130}, "12094": {"division": "Meegama", "district": "KT", "postalCode": 12094}, "12074": {"division": "Padagoda", "district": "KT", "postalCode": 12074}, "12144": {"division": "Pahalahewessa", "district": "KT", "postalCode": 12144}, "12050": {"division": "Paiyagala", "district": "KT", "postalCode": 12050}, "71411": {"division": "Maliboda", "district": "KE", "postalCode": 71411}, "71325": {"division": "Malmaduwa", "district": "KE", "postalCode": 71325}, "71605": {"division": "Dunumala", "district": "KE", "postalCode": 71605}, "71603": {"division": "Galapitamada", "district": "KE", "postalCode": 71603}, "71505": {"division": "Galatara", "district": "KE", "postalCode": 71505}, "71350": {"division": "Galigamuwa Town", "district": "KE", "postalCode": 71350}, "71312": {"division": "Galpatha(Sab)", "district": "KE", "postalCode": 71312}, "71222": {"division": "Gantuna", "district": "KE", "postalCode": 71222}, "71318": {"division": "Gonagala", "district": "KE", "postalCode": 71318}, "71352": {"division": "Hakahinna", "district": "KE", "postalCode": 71352}, "71715": {"division": "Hakbellawaka", "district": "KE", "postalCode": 71715}, "71046": {"division": "Helamada", "district": "KE", "postalCode": 71046}, "71530": {"division": "Hemmatagama", "district": "KE", "postalCode": 71530}, "71210": {"division": "Hettimulla", "district": "KE", "postalCode": 71210}, "71108": {"division": "Hewadiwela", "district": "KE", "postalCode": 71108}, "71520": {"division": "Hingula", "district": "KE", "postalCode": 71520}, "71417": {"division": "Hinguralakanda", "district": "KE", "postalCode": 71417}, "71014": {"division": "Hiriwadunna", "district": "KE", "postalCode": 71014}, "71313": {"division": "Imbulana", "district": "KE", "postalCode": 71313}, "71055": {"division": "Imbulgasdeniya", "district": "KE", "postalCode": 71055}, "71202": {"division": "Kabagamuwa", "district": "KE", "postalCode": 71202}, "71372": {"division": "Kannattota", "district": "KE", "postalCode": 71372}, "71315": {"division": "Lewangama", "district": "KE", "postalCode": 71315}, "71722": {"division": "Mahabage", "district": "KE", "postalCode": 71722}, "71063": {"division": "Mahapallegama", "district": "KE", "postalCode": 71063}, "71211": {"division": "Maharangalla", "district": "KE", "postalCode": 71211}, "71507": {"division": "Makehelwala", "district": "KE", "postalCode": 71507}, "71704": {"division": "Malalpola", "district": "KE", "postalCode": 71704}, "71500": {"division": "Mawanella", "district": "KE", "postalCode": 71500}, "\u00a0": {}, "60582": {"division": "Hunupola", "district": "KG", "postalCode": 60582}, "60211": {"division": "Ihala Gomugomuwa", "district": "KG", "postalCode": 60211}, "60135": {"division": "Ihala Katugampala", "district": "KG", "postalCode": 60135}, "60016": {"division": "Indulgodakanda", "district": "KG", "postalCode": 60016}, "60064": {"division": "Inguruwatta", "district": "KG", "postalCode": 60064}, "60045": {"division": "Iriyagolla", "district": "KG", "postalCode": 60045}, "60025": {"division": "Ithanawatta", "district": "KG", "postalCode": 60025}, "60492": {"division": "Kadigawa", "district": "KG", "postalCode": 60492}, "60062": {"division": "Kahapathwala", "district": "KG", "postalCode": 60062}, "60096": {"division": "Kalugamuwa", "district": "KG", "postalCode": 60096}, "60054": {"division": "Kanadeniyawala", "district": "KG", "postalCode": 60054}, "60422": {"division": "Kanattewewa", "district": "KG", "postalCode": 60422}, "60106": {"division": "Karagahagedara", "district": "KG", "postalCode": 60106}, "60602": {"division": "Karambe", "district": "KG", "postalCode": 60602}, "60162": {"division": "Labbala", "district": "KG", "postalCode": 60162}, "60500": {"division": "lbbagamuwa", "district": "KG", "postalCode": 60500}, "60238": {"division": "lhala Kadigamuwa", "district": "KG", "postalCode": 60238}, "60232": {"division": "llukhena", "district": "KG", "postalCode": 60232}, "60108": {"division": "Lonahettiya", "district": "KG", "postalCode": 60108}, "60552": {"division": "Madahapola", "district": "KG", "postalCode": 60552}, "60209": {"division": "Madakumburumulla", "district": "KG", "postalCode": 60209}, "60532": {"division": "Maduragoda", "district": "KG", "postalCode": 60532}, "60512": {"division": "Maeliya", "district": "KG", "postalCode": 60512}, "60221": {"division": "Magulagama", "district": "KG", "postalCode": 60221}, "60731": {"division": "Mahagalkadawala", "district": "KG", "postalCode": 60731}, "60479": {"division": "Mahagirilla", "district": "KG", "postalCode": 60479}, "60516": {"division": "Mahamukalanyaya", "district": "KG", "postalCode": 60516}, "60724": {"division": "Mahananneriya", "district": "KG", "postalCode": 60724}, "60286": {"division": "Maharachchimulla", "district": "KG", "postalCode": 60286}, "60600": {"division": "Maho", "district": "KG", "postalCode": 60600}, "60714": {"division": "Makulewa", "district": "KG", "postalCode": 60714}, "60514": {"division": "Makulpotha", "district": "KG", "postalCode": 60514}, "60578": {"division": "Makulwewa", "district": "KG", "postalCode": 60578}, "60404": {"division": "Malagane", "district": "KG", "postalCode": 60404}, "60434": {"division": "Mandapola", "district": "KG", "postalCode": 60434}, "60344": {"division": "Maspotha", "district": "KG", "postalCode": 60344}, "60060": {"division": "Mawathagama", "district": "KG", "postalCode": 60060}, "60612": {"division": "Medivawa", "district": "KG", "postalCode": 60612}, "60750": {"division": "Meegalawa", "district": "KG", "postalCode": 60750}, "60066": {"division": "Meetanwala", "district": "KG", "postalCode": 60066}, "60484": {"division": "Meewellawa", "district": "KG", "postalCode": 60484}, "60540": {"division": "Melsiripura", "district": "KG", "postalCode": 60540}, "60304": {"division": "Metikumbura", "district": "KG", "postalCode": 60304}, "60121": {"division": "Metiyagane", "district": "KG", "postalCode": 60121}, "60461": {"division": "Padeniya", "district": "KG", "postalCode": 60461}, "60236": {"division": "Padiwela", "district": "KG", "postalCode": 60236}, "60735": {"division": "Pahalagiribawa", "district": "KG", "postalCode": 60735}, "60112": {"division": "Pahamune", "district": "KG", "postalCode": 60112}, "60704": {"division": "Palukadawala", "district": "KG", "postalCode": 60704}, "60348": {"division": "Panadaragama", "district": "KG", "postalCode": 60348}, "60052": {"division": "Panagamuwa", "district": "KG", "postalCode": 60052}, "60312": {"division": "Panaliya", "district": "KG", "postalCode": 60312}, "81072": {"division": "Gomilamawarala", "district": "MH", "postalCode": 81072}, "81300": {"division": "Hakmana", "district": "MH", "postalCode": 81300}, "81326": {"division": "Handugala", "district": "MH", "postalCode": 81326}, "81108": {"division": "Horapawita", "district": "MH", "postalCode": 81108}, "81478": {"division": "Kalubowitiyana", "district": "MH", "postalCode": 81478}, "81750": {"division": "Kamburugamuwa", "district": "MH", "postalCode": 81750}, "81100": {"division": "Kamburupitiya", "district": "MH", "postalCode": 81100}, "81082": {"division": "Karagoda", "district": "MH", "postalCode": 81082}, "81526": {"division": "Lankagama", "district": "MH", "postalCode": 81526}, "81070": {"division": "Makandura", "district": "MH", "postalCode": 81070}, "81424": {"division": "Maliduwa", "district": "MH", "postalCode": 81424}, "81416": {"division": "Maramba", "district": "MH", "postalCode": 81416}, "81000": {"division": "Matara", "district": "MH", "postalCode": 81000}, "81524": {"division": "Mediripitiya", "district": "MH", "postalCode": 81524}, "81312": {"division": "Miella", "district": "MH", "postalCode": 81312}, "81472": {"division": "Pahala Millawa", "district": "MH", "postalCode": 81472}, "81050": {"division": "Palatuwa", "district": "MH", "postalCode": 81050}, "81474": {"division": "Paragala", "district": "MH", "postalCode": 81474}, "81322": {"division": "Parapamulla", "district": "MH", "postalCode": 81322}, "81615": {"division": "Pasgoda", "district": "MH", "postalCode": 81615}, "81722": {"division": "Penetiyana", "district": "MH", "postalCode": 81722}, "91250": {"division": "Ettiliwewa", "district": "MJ", "postalCode": 91250}, "91008": {"division": "Galabedda", "district": "MJ", "postalCode": 91008}, "91308": {"division": "Hambegamuwa", "district": "MJ", "postalCode": 91308}, "91004": {"division": "Hulandawa", "district": "MJ", "postalCode": 91004}, "91040": {"division": "Inginiyagala", "district": "MJ", "postalCode": 91040}, "91032": {"division": "Kandaudapanguwa", "district": "MJ", "postalCode": 91032}, "91552": {"division": "Kandawinna", "district": "MJ", "postalCode": 91552}, "70256": {"division": "Mahagama Colony", "district": "MJ", "postalCode": 70256}, "91006": {"division": "Marawa", "district": "MJ", "postalCode": 91006}, "91052": {"division": "Mariarawa", "district": "MJ", "postalCode": 91052}, "91550": {"division": "Medagana", "district": "MJ", "postalCode": 91550}, "91007": {"division": "Obbegoda", "district": "MJ", "postalCode": 91007}, "91060": {"division": "Okkampitiya", "district": "MJ", "postalCode": 91060}, "91002": {"division": "Pangura", "district": "MJ", "postalCode": 91002}, "91505": {"division": "Pitakumbura", "district": "MJ", "postalCode": 91505}, "20668": {"division": "Hapugastalawa", "district": "NW", "postalCode": 20668}, "20669": {"division": "Harangalagama", "district": "NW", "postalCode": 20669}, "22262": {"division": "Harasbedda", "district": "NW", "postalCode": 22262}, "22000": {"division": "Hatton", "district": "NW", "postalCode": 22000}, "22024": {"division": "Hedunuwewa", "district": "NW", "postalCode": 22024}, "22046": {"division": "Hitigegama", "district": "NW", "postalCode": 22046}, "22282": {"division": "Kalaganwatta", "district": "NW", "postalCode": 22282}, "22220": {"division": "Kandapola", "district": "NW", "postalCode": 22220}, "20592": {"division": "Labukele", "district": "NW", "postalCode": 20592}, "22034": {"division": "Laxapana", "district": "NW", "postalCode": 22034}, "22090": {"division": "Lindula", "district": "NW", "postalCode": 22090}, "22256": {"division": "Madulla", "district": "NW", "postalCode": 22256}, "22021": {"division": "Maldeniya", "district": "NW", "postalCode": 22021}, "22070": {"division": "Maskeliya", "district": "NW", "postalCode": 22070}, "20566": {"division": "Maswela", "district": "NW", "postalCode": 20566}, "20750": {"division": "Padiyapelella", "district": "NW", "postalCode": 20750}, "51026": {"division": "Giritale", "district": "PR", "postalCode": 51026}, "51098": {"division": "Hansayapalama", "district": "PR", "postalCode": 51098}, "51408": {"division": "Hingurakdamana", "district": "PR", "postalCode": 51408}, "51400": {"division": "Hingurakgoda", "district": "PR", "postalCode": 51400}, "51024": {"division": "Jayanthipura", "district": "PR", "postalCode": 51024}, "51246": {"division": "Jayasiripura", "district": "PR", "postalCode": 51246}, "51002": {"division": "Kalingaela", "district": "PR", "postalCode": 51002}, "51037": {"division": "Kalukele Badanagala", "district": "PR", "postalCode": 51037}, "51006": {"division": "Lakshauyana", "district": "PR", "postalCode": 51006}, "51108": {"division": "Maduruoya", "district": "PR", "postalCode": 51108}, "51518": {"division": "MahaAmbagaswewa", "district": "PR", "postalCode": 51518}, "51506": {"division": "Mahatalakolawewa", "district": "PR", "postalCode": 51506}, "51076": {"division": "Mahawela Sinhapura", "district": "PR", "postalCode": 51076}, "51090": {"division": "Mampitiya", "district": "PR", "postalCode": 51090}, "51500": {"division": "Medirigiriya", "district": "PR", "postalCode": 51500}, "51508": {"division": "Meegaswewa", "district": "PR", "postalCode": 51508}, "51004": {"division": "Onegama", "district": "PR", "postalCode": 51004}, "61514": {"division": "Inginimitiya", "district": "PX", "postalCode": 61514}, "61302": {"division": "Ismailpuram", "district": "PX", "postalCode": 61302}, "61236": {"division": "Kakkapalliya", "district": "PX", "postalCode": 61236}, "61534": {"division": "Kalladiya", "district": "PX", "postalCode": 61534}, "61360": {"division": "Kalpitiya", "district": "PX", "postalCode": 61360}, "61358": {"division": "Kandakuliya", "district": "PX", "postalCode": 61358}, "61138": {"division": "Lihiriyagama", "district": "PX", "postalCode": 61138}, "61150": {"division": "Lunuwila", "district": "PX", "postalCode": 61150}, "61230": {"division": "Madampe", "district": "PX", "postalCode": 61230}, "61270": {"division": "Madurankuliya", "district": "PX", "postalCode": 61270}, "61272": {"division": "Mahakumbukkadawala", "district": "PX", "postalCode": 61272}, "61512": {"division": "Mahauswewa", "district": "PX", "postalCode": 61512}, "61220": {"division": "Mahawewa", "district": "PX", "postalCode": 61220}, "61341": {"division": "Mampuri", "district": "PX", "postalCode": 61341}, "61266": {"division": "Mangalaeliya", "district": "PX", "postalCode": 61266}, "61210": {"division": "Marawila", "district": "PX", "postalCode": 61210}, "61280": {"division": "Palaviya", "district": "PX", "postalCode": 61280}, "61354": {"division": "Palliwasalturai", "district": "PX", "postalCode": 61354}, "61234": {"division": "Panirendawa", "district": "PX", "postalCode": 61234}, "70160": {"division": "Godakawela", "district": "RN", "postalCode": 70160}, "70136": {"division": "Gurubewilagama", "district": "RN", "postalCode": 70136}, "70145": {"division": "Halpe", "district": "RN", "postalCode": 70145}, "70171": {"division": "Halwinna", "district": "RN", "postalCode": 70171}, "70106": {"division": "Handagiriya", "district": "RN", "postalCode": 70106}, "70164": {"division": "Hapugastenna", "district": "RN", "postalCode": 70164}, "70105": {"division": "Hatangala", "district": "RN", "postalCode": 70105}, "70108": {"division": "Hatarabage", "district": "RN", "postalCode": 70108}, "70012": {"division": "Hidellana", "district": "RN", "postalCode": 70012}, "70296": {"division": "Hiramadagama", "district": "RN", "postalCode": 70296}, "70144": {"division": "Ihalagama", "district": "RN", "postalCode": 70144}, "70342": {"division": "Ittakanda", "district": "RN", "postalCode": 70342}, "70016": {"division": "Kahangama", "district": "RN", "postalCode": 70016}, "70150": {"division": "Kahawatta", "district": "RN", "postalCode": 70150}, "70450": {"division": "Kalawana", "district": "RN", "postalCode": 70450}, "70122": {"division": "Kaltota", "district": "RN", "postalCode": 70122}, "70056": {"division": "Lellopitiya", "district": "RN", "postalCode": 70056}, "70134": {"division": "lmbulpe", "district": "RN", "postalCode": 70134}, "70158": {"division": "Madalagama", "district": "RN", "postalCode": 70158}, "70112": {"division": "Mahawalatenna", "district": "RN", "postalCode": 70112}, "70298": {"division": "Makandura Sabara", "district": "RN", "postalCode": 70298}, "70001": {"division": "Malwala Junction", "district": "RN", "postalCode": 70001}, "70041": {"division": "Marapana", "district": "RN", "postalCode": 70041}, "70482": {"division": "Matuwagalagama", "district": "RN", "postalCode": 70482}, "70021": {"division": "Medagalatur", "district": "RN", "postalCode": 70021}, "70127": {"division": "Meddekanda", "district": "RN", "postalCode": 70127}, "70215": {"division": "Omalpe", "district": "RN", "postalCode": 70215}, "70080": {"division": "Opanayaka", "district": "RN", "postalCode": 70080}, "70230": {"division": "Padalangala", "district": "RN", "postalCode": 70230}, "70170": {"division": "Pallebedda", "district": "RN", "postalCode": 70170}, "70133": {"division": "Pambagolla", "district": "RN", "postalCode": 70133}, "70218": {"division": "Panamura", "district": "RN", "postalCode": 70218}, "31306": {"division": "KantalaiSugarFactory", "district": "TC", "postalCode": 31306}, "31234": {"division": "Lankapatuna", "district": "TC", "postalCode": 31234}, "31036": {"division": "Mahadivulwewa", "district": "TC", "postalCode": 31036}, "31106": {"division": "Maharugiramam", "district": "TC", "postalCode": 31106}, "31224": {"division": "Mallikativu", "district": "TC", "postalCode": 31224}, "31238": {"division": "Mawadichenai", "district": "TC", "postalCode": 31238}, "31034": {"division": "Pankulam", "district": "TC", "postalCode": 31034}, "31038": {"division": "Rottawewa", "district": "TC", "postalCode": 31038}, "31006": {"division": "Sampaltivu", "district": "TC", "postalCode": 31006}, "31216": {"division": "Sampur", "district": "TC", "postalCode": 31216}, "21536": {"division": "Handungamuwa", "district": "MT", "postalCode": 21536}, "21514": {"division": "Hattota Amuna", "district": "MT", "postalCode": 21514}, "21064": {"division": "Imbulgolla", "district": "MT", "postalCode": 21064}, "21124": {"division": "Inamaluwa", "district": "MT", "postalCode": 21124}, "21066": {"division": "Kaikawala", "district": "MT", "postalCode": 21066}, "21112": {"division": "Kalundawa", "district": "MT", "postalCode": 21112}, "21106": {"division": "Kandalama", "district": "MT", "postalCode": 21106}, "21014": {"division": "Karagahinna", "district": "MT", "postalCode": 21014}, "21520": {"division": "Laggala Pallegama", "district": "MT", "postalCode": 21520}, "21008": {"division": "Leliambe", "district": "MT", "postalCode": 21008}, "21094": {"division": "Lenadora", "district": "MT", "postalCode": 21094}, "21406": {"division": "lllukkumbura", "district": "MT", "postalCode": 21406}, "21074": {"division": "Madawala", "district": "MT", "postalCode": 21074}, "21156": {"division": "Madipola", "district": "MT", "postalCode": 21156}, "21140": {"division": "Mahawela", "district": "MT", "postalCode": 21140}, "21144": {"division": "Mananwatta", "district": "MT", "postalCode": 21144}, "21554": {"division": "Maraka", "district": "MT", "postalCode": 21554}, "21000": {"division": "Matale", "district": "MT", "postalCode": 21000}, "21055": {"division": "Melipitiya", "district": "MT", "postalCode": 21055}, "32031": {"division": "Paragahakele", "district": "APR", "postalCode": 32031}, "32316": {"division": "Periyaneelavanai", "district": "APR", "postalCode": 32316}, "32032": {"division": "Polwaga Janapadaya", "district": "APR", "postalCode": 32032}, "32500": {"division": "Pottuvil", "district": "APR", "postalCode": 32500}, "32068": {"division": "Rajagalatenna", "district": "APR", "postalCode": 32068}, "32280": {"division": "Sainthamaruthu", "district": "APR", "postalCode": 32280}, "32200": {"division": "Samanthurai", "district": "APR", "postalCode": 32200}, "32101": {"division": "Serankada", "district": "APR", "postalCode": 32101}, "32155": {"division": "Siripura", "district": "APR", "postalCode": 32155}, "32048": {"division": "Siyambalawewa", "district": "APR", "postalCode": 32048}, "32072": {"division": "Tempitiya", "district": "APR", "postalCode": 32072}, "32415": {"division": "Thambiluvil", "district": "APR", "postalCode": 32415}, "32420": {"division": "Tirukovil", "district": "APR", "postalCode": 32420}, "32060": {"division": "Uhana", "district": "APR", "postalCode": 32060}, "32039": {"division": "Wadinagala", "district": "APR", "postalCode": 32039}, "32454": {"division": "Wanagamuwa", "district": "APR", "postalCode": 32454}, "50122": {"division": "Pubbogama", "district": "AD", "postalCode": 50122}, "50567": {"division": "Pulmoddai", "district": "AD", "postalCode": 50567}, "50506": {"division": "Punewa", "district": "AD", "postalCode": 50506}, "50246": {"division": "Rajanganaya", "district": "AD", "postalCode": 50246}, "50450": {"division": "Rambewa", "district": "AD", "postalCode": 50450}, "50386": {"division": "Rampathwila", "district": "AD", "postalCode": 50386}, "50212": {"division": "Ranorawa", "district": "AD", "postalCode": 50212}, "50514": {"division": "Rathmalgahawewa", "district": "AD", "postalCode": 50514}, "50008": {"division": "Saliyapura", "district": "AD", "postalCode": 50008}, "50380": {"division": "Seeppukulama", "district": "AD", "postalCode": 50380}, "50284": {"division": "Senapura", "district": "AD", "postalCode": 50284}, "50068": {"division": "Sivalakulama", "district": "AD", "postalCode": 50068}, "50184": {"division": "Siyambalewa", "district": "AD", "postalCode": 50184}, "50042": {"division": "Sravasthipura", "district": "AD", "postalCode": 50042}, "50230": {"division": "Talawa", "district": "AD", "postalCode": 50230}, "50240": {"division": "Tambuttegama", "district": "AD", "postalCode": 50240}, "50104": {"division": "Tammennawa", "district": "AD", "postalCode": 50104}, "50016": {"division": "Tantirimale", "district": "AD", "postalCode": 50016}, "50242": {"division": "Telhiriyawa", "district": "AD", "postalCode": 50242}, "50072": {"division": "Tirappane", "district": "AD", "postalCode": 50072}, "50558": {"division": "Tittagonewa", "district": "AD", "postalCode": 50558}, "50207": {"division": "Udunuwara Colony", "district": "AD", "postalCode": 50207}, "50382": {"division": "Upuldeniya", "district": "AD", "postalCode": 50382}, "50067": {"division": "Uttimaduwa", "district": "AD", "postalCode": 50067}, "50012": {"division": "Viharapalugama", "district": "AD", "postalCode": 50012}, "50110": {"division": "Vijithapura", "district": "AD", "postalCode": 50110}, "50564": {"division": "Wahalkada", "district": "AD", "postalCode": 50564}, "50492": {"division": "Wahamalgollewa", "district": "AD", "postalCode": 50492}, "50086": {"division": "Walagambahuwa", "district": "AD", "postalCode": 50086}, "50516": {"division": "Walahaviddawewa", "district": "AD", "postalCode": 50516}, "90522": {"division": "Pelagahatenna", "district": "BD", "postalCode": 90522}, "90222": {"division": "Perawella", "district": "BD", "postalCode": 90222}, "90544": {"division": "Pitamaruwa", "district": "BD", "postalCode": 90544}, "90171": {"division": "Pitapola", "district": "BD", "postalCode": 90171}, "90212": {"division": "Puhulpola", "district": "BD", "postalCode": 90212}, "90164": {"division": "Ratkarawwa", "district": "BD", "postalCode": 90164}, "90704": {"division": "Ridimaliyadda", "district": "BD", "postalCode": 90704}, "90026": {"division": "Rilpola", "district": "BD", "postalCode": 90026}, "90364": {"division": "Silmiyapura", "district": "BD", "postalCode": 90364}, "90044": {"division": "Sirimalgoda", "district": "BD", "postalCode": 90044}, "90718": {"division": "Sorabora Colony", "district": "BD", "postalCode": 90718}, "90183": {"division": "Soragune", "district": "BD", "postalCode": 90183}, "90008": {"division": "Soranatota", "district": "BD", "postalCode": 90008}, "90028": {"division": "Spring Valley", "district": "BD", "postalCode": 90028}, "90014": {"division": "Taldena", "district": "BD", "postalCode": 90014}, "90072": {"division": "Tennepanguwa", "district": "BD", "postalCode": 90072}, "90012": {"division": "Timbirigaspitiya", "district": "BD", "postalCode": 90012}, "90226": {"division": "Uduhawara", "district": "BD", "postalCode": 90226}, "90702": {"division": "Uraniya", "district": "BD", "postalCode": 90702}, "90062": {"division": "Uva Deegalla", "district": "BD", "postalCode": 90062}, "90091": {"division": "Uva Karandagolla", "district": "BD", "postalCode": 90091}, "90192": {"division": "Uva Mawelagama", "district": "BD", "postalCode": 90192}, "90188": {"division": "Uva Tenna", "district": "BD", "postalCode": 90188}, "90734": {"division": "Uva Tissapura", "district": "BD", "postalCode": 90734}, "90061": {"division": "Uva Uduwara", "district": "BD", "postalCode": 90061}, "90230": {"division": "Uvaparanagama", "district": "BD", "postalCode": 90230}, "90329": {"division": "Yalagamuwa", "district": "BD", "postalCode": 90329}, "90706": {"division": "Yalwela", "district": "BD", "postalCode": 90706}, "10230": {"division": "Pannipitiya", "district": "CO", "postalCode": 10230}, "10300": {"division": "Piliyandala", "district": "CO", "postalCode": 10300}, "10206": {"division": "Pitipana Homagama", "district": "CO", "postalCode": 10206}, "10320": {"division": "Polgasowita", "district": "CO", "postalCode": 10320}, "10712": {"division": "Puwakpitiya", "district": "CO", "postalCode": 10712}, "10654": {"division": "Ranala", "district": "CO", "postalCode": 10654}, "10304": {"division": "Siddamulla", "district": "CO", "postalCode": 10304}, "200": {"division": "Slave Island", "district": "CO", "postalCode": 200}, "10100": {"division": "Sri Jayawardenapura", "district": "CO", "postalCode": 10100}, "10116": {"division": "Talawatugoda", "district": "CO", "postalCode": 10116}, "10682": {"division": "Tummodara", "district": "CO", "postalCode": 10682}, "10680": {"division": "Waga", "district": "CO", "postalCode": 10680}, "10511": {"division": "Watareka", "district": "CO", "postalCode": 10511}, "80086": {"division": "Pannimulla anagoda", "district": "GL", "postalCode": 80086}, "80114": {"division": "ParanaThanaYamgoda", "district": "GL", "postalCode": 80114}, "80420": {"division": "Pitigala", "district": "GL", "postalCode": 80420}, "80170": {"division": "Poddala", "district": "GL", "postalCode": 80170}, "80408": {"division": "Porawagama", "district": "GL", "postalCode": 80408}, "80354": {"division": "Rantotuwila", "district": "GL", "postalCode": 80354}, "80260": {"division": "Ratgama", "district": "GL", "postalCode": 80260}, "80058": {"division": "Talagampola", "district": "GL", "postalCode": 80058}, "80406": {"division": "Talgaspe", "district": "GL", "postalCode": 80406}, "80470": {"division": "Talgaswela", "district": "GL", "postalCode": 80470}, "80615": {"division": "Talpe", "district": "GL", "postalCode": 80615}, "80148": {"division": "Tawalama", "district": "GL", "postalCode": 80148}, "80244": {"division": "Tiranagama", "district": "GL", "postalCode": 80244}, "80108": {"division": "Udalamatta", "district": "GL", "postalCode": 80108}, "80070": {"division": "Udugama", "district": "GL", "postalCode": 80070}, "80168": {"division": "Uluvitike", "district": "GL", "postalCode": 80168}, "80600": {"division": "Unawatuna", "district": "GL", "postalCode": 80600}, "80214": {"division": "Unenwitiya", "district": "GL", "postalCode": 80214}, "80352": {"division": "Uragaha", "district": "GL", "postalCode": 80352}, "80350": {"division": "Uragasmanhandiya", "district": "GL", "postalCode": 80350}, "80042": {"division": "Wakwella", "district": "GL", "postalCode": 80042}, "80046": {"division": "Walahanduwa", "district": "GL", "postalCode": 80046}, "80120": {"division": "Wanchawela", "district": "GL", "postalCode": 80120}, "80100": {"division": "Wanduramba", "district": "GL", "postalCode": 80100}, "80084": {"division": "Warukandeniya", "district": "GL", "postalCode": 80084}, "80340": {"division": "Watugedara", "district": "GL", "postalCode": 80340}, "80150": {"division": "Yakkalamulla", "district": "GL", "postalCode": 80150}, "80107": {"division": "Yatalamatta", "district": "GL", "postalCode": 80107}, "11741": {"division": "Pepiliyawala", "district": "GQ", "postalCode": 11741}, "11043": {"division": "Pethiyagoda", "district": "GQ", "postalCode": 11043}, "11324": {"division": "Polpithimukulana", "district": "GQ", "postalCode": 11324}, "10660": {"division": "Pugoda", "district": "GQ", "postalCode": 10660}, "11892": {"division": "Radawadunna", "district": "GQ", "postalCode": 11892}, "11725": {"division": "Radawana", "district": "GQ", "postalCode": 11725}, "11400": {"division": "Raddolugama", "district": "GQ", "postalCode": 11400}, "11010": {"division": "Ragama", "district": "GQ", "postalCode": 11010}, "11142": {"division": "Ruggahawila", "district": "GQ", "postalCode": 11142}, "11129": {"division": "Rukmale", "district": "GQ", "postalCode": 11129}, "11410": {"division": "Seeduwa", "district": "GQ", "postalCode": 11410}, "11607": {"division": "Siyambalape", "district": "GQ", "postalCode": 11607}, "11504": {"division": "Talahena", "district": "GQ", "postalCode": 11504}, "11532": {"division": "Thimbirigaskatuwa", "district": "GQ", "postalCode": 11532}, "10664": {"division": "Tittapattara", "district": "GQ", "postalCode": 10664}, "11054": {"division": "Udathuthiripitiya", "district": "GQ", "postalCode": 11054}, "11030": {"division": "Udugampola", "district": "GQ", "postalCode": 11030}, "11034": {"division": "Uggalboda", "district": "GQ", "postalCode": 11034}, "11126": {"division": "Urapola", "district": "GQ", "postalCode": 11126}, "11328": {"division": "Uswetakeiyawa", "district": "GQ", "postalCode": 11328}, "11100": {"division": "Veyangoda", "district": "GQ", "postalCode": 11100}, "11146": {"division": "Walgammulla", "district": "GQ", "postalCode": 11146}, "11226": {"division": "Walpita", "district": "GQ", "postalCode": 11226}, "11012": {"division": "Walpola (WP)", "district": "GQ", "postalCode": 11012}, "11068": {"division": "Wanaluwewa", "district": "GQ", "postalCode": 11068}, "11724": {"division": "Wathurugama", "district": "GQ", "postalCode": 11724}, "11104": {"division": "Watinapaha", "district": "GQ", "postalCode": 11104}, "11300": {"division": "Wattala", "district": "GQ", "postalCode": 11300}, "11858": {"division": "Weboda", "district": "GQ", "postalCode": 11858}, "11870": {"division": "Yakkala", "district": "GQ", "postalCode": 11870}, "11566": {"division": "Yatiyana(WP)", "district": "GQ", "postalCode": 11566}, "82018": {"division": "Ranmuduwewa", "district": "HB", "postalCode": 82018}, "82125": {"division": "Ranna", "district": "HB", "postalCode": 82125}, "82276": {"division": "Ratmalwala", "district": "HB", "postalCode": 82276}, "82106": {"division": "RU/Ridiyagama", "district": "HB", "postalCode": 82106}, "82010": {"division": "Sooriyawewa Town", "district": "HB", "postalCode": 82010}, "82200": {"division": "Tangalla", "district": "HB", "postalCode": 82200}, "82600": {"division": "Tissamaharama", "district": "HB", "postalCode": 82600}, "82504": {"division": "Uda Gomadiya", "district": "HB", "postalCode": 82504}, "82638": {"division": "Udamattala", "district": "HB", "postalCode": 82638}, "82278": {"division": "Uswewa", "district": "HB", "postalCode": 82278}, "82232": {"division": "Vitharandeniya", "district": "HB", "postalCode": 82232}, "82450": {"division": "Walasmulla", "district": "HB", "postalCode": 82450}, "82240": {"division": "Weeraketiya", "district": "HB", "postalCode": 82240}, "82632": {"division": "Weerawila", "district": "HB", "postalCode": 82632}, "82615": {"division": "Weerawila New Town", "district": "HB ", "postalCode": 82615}, "82418": {"division": "Yatigala", "district": "HB", "postalCode": 82418}, "12500": {"division": "Panadura", "district": "KT", "postalCode": 12500}, "12114": {"division": "Pannila", "district": "KT", "postalCode": 12114}, "12414": {"division": "Paragastota", "district": "KT", "postalCode": 12414}, "12302": {"division": "Paragoda", "district": "KT", "postalCode": 12302}, "12122": {"division": "Paraigama", "district": "KT", "postalCode": 12122}, "12214": {"division": "Pelanda", "district": "KT", "postalCode": 12214}, "12138": {"division": "Pelawatta", "district": "KT", "postalCode": 12138}, "12404": {"division": "Pokunuwita", "district": "KT", "postalCode": 12404}, "12136": {"division": "Polgampola", "district": "KT", "postalCode": 12136}, "12432": {"division": "Poruwedanda", "district": "KT", "postalCode": 12432}, "12009": {"division": "Remunagoda", "district": "KT", "postalCode": 12009}, "12025": {"division": "Tebuwana", "district": "KT", "postalCode": 12025}, "12322": {"division": "Uduwara", "district": "KT", "postalCode": 12322}, "12127": {"division": "Utumgama", "district": "KT", "postalCode": 12127}, "12204": {"division": "Veyangalla", "district": "KT", "postalCode": 12204}, "12560": {"division": "Wadduwa", "district": "KT", "postalCode": 12560}, "12112": {"division": "Walagedara", "district": "KT", "postalCode": 12112}, "12134": {"division": "Walallawita", "district": "KT", "postalCode": 12134}, "12580": {"division": "Waskaduwa", "district": "KT", "postalCode": 12580}, "12124": {"division": "Yagirala", "district": "KT", "postalCode": 12124}, "12104": {"division": "Yatadolawatta", "district": "KT", "postalCode": 12104}, "12006": {"division": "Yatawara Junction", "district": "KT", "postalCode": 12006}, "71105": {"division": "Parape", "district": "KE", "postalCode": 71105}, "71130": {"division": "Pattampitiya", "district": "KE", "postalCode": 71130}, "71360": {"division": "Pitagaldeniya", "district": "KE", "postalCode": 71360}, "71039": {"division": "Pothukoladeniya", "district": "KE", "postalCode": 71039}, "71100": {"division": "Rambukkana", "district": "KE", "postalCode": 71100}, "71300": {"division": "Ruwanwella", "district": "KE", "postalCode": 71300}, "71708": {"division": "Seaforth Colony", "district": "KE", "postalCode": 71708}, "71541": {"division": "Talgaspitiya", "district": "KE", "postalCode": 71541}, "71724": {"division": "Teligama", "district": "KE", "postalCode": 71724}, "71619": {"division": "Tholangamuwa", "district": "KE", "postalCode": 71619}, "71106": {"division": "Thotawella", "district": "KE", "postalCode": 71106}, "71610": {"division": "Tulhiriya", "district": "KE", "postalCode": 71610}, "71062": {"division": "Tuntota", "district": "KE", "postalCode": 71062}, "71113": {"division": "Udagaldeniya", "district": "KE", "postalCode": 71113}, "71236": {"division": "Udapotha", "district": "KE", "postalCode": 71236}, "71521": {"division": "Udumulla", "district": "KE", "postalCode": 71521}, "71200": {"division": "Undugoda", "district": "KE", "postalCode": 71200}, "71510": {"division": "Ussapitiya", "district": "KE", "postalCode": 71510}, "71303": {"division": "Wahakula", "district": "KE", "postalCode": 71303}, "71304": {"division": "Waharaka", "district": "KE", "postalCode": 71304}, "71600": {"division": "Warakapola", "district": "KE", "postalCode": 71600}, "71035": {"division": "Watura", "district": "KE", "postalCode": 71035}, "71702": {"division": "Weeoya", "district": "KE", "postalCode": 71702}, "71116": {"division": "Yatagama", "district": "KE", "postalCode": 71116}, "71326": {"division": "Yatapana", "district": "KE", "postalCode": 71326}, "71700": {"division": "Yatiyantota", "district": "KE", "postalCode": 71700}, "71029": {"division": "Yattogoda", "district": "KE", "postalCode": 71029}, "60558": {"division": "Panliyadda", "district": "KG", "postalCode": 60558}, "60160": {"division": "Pannala", "district": "KG", "postalCode": 60160}, "60554": {"division": "Pansiyagama", "district": "KG", "postalCode": 60554}, "60518": {"division": "Periyakadneluwa", "district": "KG", "postalCode": 60518}, "60439": {"division": "Pihimbiya Ratmale", "district": "KG", "postalCode": 60439}, "60053": {"division": "Pihimbuwa", "district": "KG", "postalCode": 60053}, "60058": {"division": "Pilessa", "district": "KG", "postalCode": 60058}, "60300": {"division": "Polgahawela", "district": "KG", "postalCode": 60300}, "60620": {"division": "Polpitigama", "district": "KG", "postalCode": 60620}, "60330": {"division": "Pothuhera", "district": "KG", "postalCode": 60330}, "60072": {"division": "Puswelitenna", "district": "KG", "postalCode": 60072}, "60606": {"division": "Ridibendiella", "district": "KG", "postalCode": 60606}, "60040": {"division": "Ridigama", "district": "KG", "postalCode": 60040}, "60736": {"division": "Saliya Asokapura", "district": "KG", "postalCode": 60736}, "60176": {"division": "Sandalankawa", "district": "KG", "postalCode": 60176}, "60478": {"division": "Sirisetagama", "district": "KG", "postalCode": 60478}, "60646": {"division": "Siyambalangamuwa", "district": "KG", "postalCode": 60646}, "60737": {"division": "Solepura", "district": "KG", "postalCode": 60737}, "60738": {"division": "Solewewa", "district": "KG", "postalCode": 60738}, "60436": {"division": "Sunandapura", "district": "KG", "postalCode": 60436}, "60306": {"division": "Talawattegedara", "district": "KG", "postalCode": 60306}, "60734": {"division": "Tambutta", "district": "KG", "postalCode": 60734}, "60208": {"division": "Thalahitimulla", "district": "KG", "postalCode": 60208}, "60624": {"division": "Thalakolawewa", "district": "KG", "postalCode": 60624}, "60572": {"division": "Thalwita", "district": "KG", "postalCode": 60572}, "60584": {"division": "Thambagalla", "district": "KG", "postalCode": 60584}, "60227": {"division": "Tharana Udawela", "district": "KG", "postalCode": 60227}, "60476": {"division": "Thimbiriyawa", "district": "KG", "postalCode": 60476}, "60453": {"division": "Tisogama", "district": "KG", "postalCode": 60453}, "60499": {"division": "Torayaya", "district": "KG", "postalCode": 60499}, "60426": {"division": "Tuttiripitigama", "district": "KG", "postalCode": 60426}, "60250": {"division": "Udubaddawa", "district": "KG", "postalCode": 60250}, "60094": {"division": "Uhumiya", "district": "KG", "postalCode": 60094}, "60622": {"division": "Ulpotha Pallekele", "district": "KG", "postalCode": 60622}, "60318": {"division": "Wadakada", "district": "KG", "postalCode": 60318}, "60204": {"division": "Wadumunnegedara", "district": "KG", "postalCode": 60204}, "60198": {"division": "Walakumburumulla", "district": "KG", "postalCode": 60198}, "60465": {"division": "Wannigama", "district": "KG", "postalCode": 60465}, "60721": {"division": "Wannikudawewa", "district": "KG", "postalCode": 60721}, "60722": {"division": "Wannilhalagama", "district": "KG", "postalCode": 60722}, "60490": {"division": "Wannirasnayakapura", "district": "KG", "postalCode": 60490}, "60739": {"division": "Warawewa", "district": "KG", "postalCode": 60739}, "60400": {"division": "Wariyapola", "district": "KG", "postalCode": 60400}, "60262": {"division": "Watuwatta", "district": "KG", "postalCode": 60262}, "60454": {"division": "Weerapokuna", "district": "KG", "postalCode": 60454}, "60202": {"division": "Yakwila", "district": "KG", "postalCode": 60202}, "60314": {"division": "Yatigaloluwa", "district": "KG", "postalCode": 60314}, "81450": {"division": "Pitabeddara", "district": "MH", "postalCode": 81450}, "81538": {"division": "Pothdeniya", "district": "MH", "postalCode": 81538}, "81290": {"division": "Puhulwella", "district": "MH", "postalCode": 81290}, "81316": {"division": "Radawela", "district": "MH", "postalCode": 81316}, "81064": {"division": "Ransegoda", "district": "MH", "postalCode": 81064}, "81030": {"division": "Ratmale", "district": "MH", "postalCode": 81030}, "81074": {"division": "Rotumba", "district": "MH", "postalCode": 81074}, "81462": {"division": "Siyambalagoda", "district": "MH", "postalCode": 81462}, "81051": {"division": "Sultanagoda", "district": "MH", "postalCode": 81051}, "81060": {"division": "Telijjawila", "district": "MH", "postalCode": 81060}, "81280": {"division": "Thihagoda", "district": "MH", "postalCode": 81280}, "81600": {"division": "Urubokka", "district": "MH", "postalCode": 81600}, "81230": {"division": "Urugamuwa", "district": "MH", "postalCode": 81230}, "81414": {"division": "Urumutta", "district": "MH", "postalCode": 81414}, "81508": {"division": "Viharahena", "district": "MH", "postalCode": 81508}, "81294": {"division": "Walakanda", "district": "MH", "postalCode": 81294}, "81220": {"division": "Walasgala", "district": "MH", "postalCode": 81220}, "81479": {"division": "Waralla", "district": "MH", "postalCode": 81479}, "81034": {"division": "Yatiyana", "district": "MH", "postalCode": 81034}, "91204": {"division": "Randeniya", "district": "MJ", "postalCode": 91204}, "91056": {"division": "Ruwalwela", "district": "MJ", "postalCode": 91056}, "91405": {"division": "Sella Kataragama", "district": "MJ", "postalCode": 91405}, "70250": {"division": "Sewanagala", "district": "MJ", "postalCode": 70250}, "91202": {"division": "Siyambalagune", "district": "MJ", "postalCode": 91202}, "91030": {"division": "Siyambalanduwa", "district": "MJ", "postalCode": 91030}, "91306": {"division": "Suriara", "district": "MJ", "postalCode": 91306}, "91300": {"division": "Tanamalwila", "district": "MJ", "postalCode": 91300}, "91054": {"division": "Uva Gangodagama", "district": "MJ", "postalCode": 91054}, "91298": {"division": "Uva Kudaoya", "district": "MJ", "postalCode": 91298}, "91112": {"division": "Uva Pelawatta", "district": "MJ", "postalCode": 91112}, "91198": {"division": "Warunagama", "district": "MJ", "postalCode": 91198}, "91005": {"division": "Wedikumbura", "district": "MJ", "postalCode": 91005}, "22012": {"division": "Patana", "district": "NW", "postalCode": 22012}, "20682": {"division": "Pitawala", "district": "NW", "postalCode": 20682}, "22120": {"division": "Pundaluoya", "district": "NW", "postalCode": 22120}, "20590": {"division": "Ramboda", "district": "NW", "postalCode": 20590}, "22008": {"division": "Rozella", "district": "NW", "postalCode": 22008}, "22245": {"division": "Rupaha", "district": "NW", "postalCode": 22245}, "22212": {"division": "Ruwaneliya", "district": "NW", "postalCode": 22212}, "22202": {"division": "Santhipura", "district": "NW", "postalCode": 22202}, "22100": {"division": "Talawakele", "district": "NW", "postalCode": 22100}, "22287": {"division": "Teripeha", "district": "NW", "postalCode": 22287}, "22285": {"division": "Udamadura", "district": "NW", "postalCode": 22285}, "22250": {"division": "Udapussallawa", "district": "NW", "postalCode": 22250}, "22270": {"division": "Walapane", "district": "NW", "postalCode": 22270}, "22110": {"division": "Watagoda", "district": "NW", "postalCode": 22110}, "22010": {"division": "Watawala", "district": "NW", "postalCode": 22010}, "51046": {"division": "Palugasdamana", "district": "PR", "postalCode": 51046}, "51016": {"division": "Parakramasamudraya", "district": "PR", "postalCode": 51016}, "51033": {"division": "Pelatiyawa", "district": "PR", "postalCode": 51033}, "51102": {"division": "Pimburattewa", "district": "PR", "postalCode": 51102}, "51000": {"division": "Polonnaruwa", "district": "PR", "postalCode": 51000}, "51050": {"division": "Pulastigama", "district": "PR", "postalCode": 51050}, "51062": {"division": "Sevanapitiya", "district": "PR", "postalCode": 51062}, "51378": {"division": "Sinhagama", "district": "PR", "postalCode": 51378}, "51052": {"division": "Sungavila", "district": "PR", "postalCode": 51052}, "51044": {"division": "Talpotha", "district": "PR", "postalCode": 51044}, "51089": {"division": "Tamankaduwa", "district": "PR", "postalCode": 51089}, "51049": {"division": "Tambala", "district": "PR", "postalCode": 51049}, "51008": {"division": "Unagalavehera", "district": "PR", "postalCode": 51008}, "51422": {"division": "Yodaela", "district": "PR", "postalCode": 51422}, "51424": {"division": "Yudaganawa", "district": "PR", "postalCode": 51424}, "61162": {"division": "Pothuwatawana", "district": "PX", "postalCode": 61162}, "61300": {"division": "Puttalam", "district": "PX", "postalCode": 61300}, "61326": {"division": "PuttalamCementFactory", "district": "PX", "postalCode": 61326}, "61242": {"division": "Rajakadaluwa", "district": "PX", "postalCode": 61242}, "61324": {"division": "Saliyawewa Junction", "district": "PX", "postalCode": 61324}, "61042": {"division": "Serukele", "district": "PX", "postalCode": 61042}, "61312": {"division": "Sirambiadiya", "district": "PX", "postalCode": 61312}, "61504": {"division": "Siyambalagashene", "district": "PX", "postalCode": 61504}, "61322": {"division": "Tabbowa", "district": "PX", "postalCode": 61322}, "61344": {"division": "Talawila Church", "district": "PX", "postalCode": 61344}, "61224": {"division": "Toduwawa", "district": "PX", "postalCode": 61224}, "61004": {"division": "Udappuwa", "district": "PX", "postalCode": 61004}, "61502": {"division": "Uridyawa", "district": "PX", "postalCode": 61502}, "61306": {"division": "Vanathawilluwa", "district": "PX", "postalCode": 61306}, "61110": {"division": "Waikkal", "district": "PX", "postalCode": 61110}, "61198": {"division": "Watugahamulla", "district": "PX", "postalCode": 61198}, "61144": {"division": "Yogiyana", "district": "PX", "postalCode": 61144}, "70152": {"division": "Panapitiya", "district": "RN", "postalCode": 70152}, "70461": {"division": "Panapola", "district": "RN", "postalCode": 70461}, "70612": {"division": "Panawala", "district": "RN", "postalCode": 70612}, "70550": {"division": "Parakaduwa", "district": "RN", "postalCode": 70550}, "70045": {"division": "Pebotuwa", "district": "RN", "postalCode": 70045}, "70070": {"division": "Pelmadulla", "district": "RN", "postalCode": 70070}, "70472": {"division": "Pimbura", "district": "RN", "postalCode": 70472}, "70130": {"division": "Pinnawala", "district": "RN", "postalCode": 70130}, "70338": {"division": "Pothupitiya", "district": "RN", "postalCode": 70338}, "70116": {"division": "Rajawaka", "district": "RN", "postalCode": 70116}, "70300": {"division": "Rakwana", "district": "RN", "postalCode": 70300}, "70162": {"division": "Ranwala", "district": "RN", "postalCode": 70162}, "70135": {"division": "Rassagala", "district": "RN", "postalCode": 70135}, "70036": {"division": "Ratna Hangamuwa", "district": "RN", "postalCode": 70036}, "70000": {"division": "Ratnapura", "district": "RN", "postalCode": 70000}, "70142": {"division": "Samanalawewa", "district": "RN", "postalCode": 70142}, "70004": {"division": "Sri Palabaddala", "district": "RN", "postalCode": 70004}, "70502": {"division": "Sudagala", "district": "RN", "postalCode": 70502}, "70101": {"division": "Talakolahinna", "district": "RN", "postalCode": 70101}, "70118": {"division": "Tanjantenna", "district": "RN", "postalCode": 70118}, "70512": {"division": "Teppanawa", "district": "RN", "postalCode": 70512}, "70205": {"division": "Tunkama", "district": "RN", "postalCode": 70205}, "70154": {"division": "Udaha Hawupe", "district": "RN", "postalCode": 70154}, "70044": {"division": "Udakarawita", "district": "RN", "postalCode": 70044}, "70034": {"division": "Udaniriella", "district": "RN", "postalCode": 70034}, "70190": {"division": "Udawalawe", "district": "RN", "postalCode": 70190}, "70345": {"division": "Ullinduwawa", "district": "RN", "postalCode": 70345}, "70459": {"division": "Veddagala", "district": "RN", "postalCode": 70459}, "70348": {"division": "Vijeriya", "district": "RN", "postalCode": 70348}, "70138": {"division": "Waleboda", "district": "RN", "postalCode": 70138}, "70408": {"division": "Watapotha", "district": "RN", "postalCode": 70408}, "70456": {"division": "Waturawa", "district": "RN", "postalCode": 70456}, "31232": {"division": "Serunuwara", "district": "TC", "postalCode": 31232}, "31260": {"division": "Seruwila", "district": "TC", "postalCode": 31260}, "31314": {"division": "Sirajnagar", "district": "TC", "postalCode": 31314}, "31222": {"division": "Somapura", "district": "TC", "postalCode": 31222}, "31046": {"division": "Tampalakamam", "district": "TC", "postalCode": 31046}, "31016": {"division": "Tiriyayi", "district": "TC", "postalCode": 31016}, "31250": {"division": "Toppur", "district": "TC", "postalCode": 31250}, "31000": {"division": "Trincomalee", "district": "TC", "postalCode": 31000}, "31053": {"division": "Vellamanal", "district": "TC", "postalCode": 31053}, "31308": {"division": "Wanela", "district": "TC", "postalCode": 31308}, "21062": {"division": "Metihakka", "district": "MT", "postalCode": 21062}, "21076": {"division": "Opalgala", "district": "MT", "postalCode": 21076}, "21020": {"division": "Ovilikanda", "district": "MT", "postalCode": 21020}, "21070": {"division": "Palapathwela", "district": "MT", "postalCode": 21070}, "21152": {"division": "Pallepola", "district": "MT", "postalCode": 21152}, "21532": {"division": "Perakanatta", "district": "MT", "postalCode": 21532}, "21502": {"division": "Pubbiliya", "district": "MT", "postalCode": 21502}, "21524": {"division": "Ranamuregama", "district": "MT", "postalCode": 21524}, "21400": {"division": "Rattota", "district": "MT", "postalCode": 21400}, "21058": {"division": "Selagama", "district": "MT", "postalCode": 21058}, "21120": {"division": "Sigiriya", "district": "MT", "postalCode": 21120}, "21506": {"division": "Talagoda Junction", "district": "MT", "postalCode": 21506}, "21116": {"division": "Talakiriyagama", "district": "MT", "postalCode": 21116}, "21051": {"division": "Udasgiriya", "district": "MT", "postalCode": 21051}, "21006": {"division": "Udatenna", "district": "MT", "postalCode": 21006}, "21300": {"division": "Ukuwela", "district": "MT", "postalCode": 21300}, "21160": {"division": "Wahacotte", "district": "MT", "postalCode": 21160}, "21048": {"division": "Walawela", "district": "MT", "postalCode": 21048}, "21056": {"division": "Yatawatta", "district": "MT", "postalCode": 21056}, "44000": {"division": "Kilinochchi", "district": "KI", "postalCode": 44000}}